Name,City,State,Type,Established,Latitude,Longitude
Indian Museum,Kolkata,West Bengal,General/Natural History,1814-02-02,22.557886,88.351127
Victoria Memorial,Kolkata,West Bengal,Art/History,1921,22.5449,88.3425
National Museum,New Delhi,Delhi,General,1949-08-15,28.611811,77.219261
National Gallery of Modern Art,New Delhi,Delhi,Modern Art,1954,28.60964,77.23424
Chhatrapati Shivaji Maharaj Vastu Sangrahalaya,Mumbai,Maharashtra,Art & Culture,1920s,18.92686,72.83263
Salar Jung Museum,Hyderabad,Telangana,Art,1951-12-16,17.37135,78.48056
Government Museum,Chennai,Tamil Nadu,General,1851,13.0714,80.2565
National Museum of Indian Cinema,Mumbai,Maharashtra,Film museum,2019-01-19,18.9279,72.8284
Nehru Science Centre,Mumbai,Maharashtra,Science,1985,18.9908,72.81861
Goa Chitra Museum,Benaulim,Goa,Ethnographic,2009,15.2647,73.94161
Government Museum,Bengaluru,Karnataka,Archaeology,1865-08-18,,
Government Museum,Chennai,Tamil Nadu,Art & History,1851,13.0714,80.2565
Albert Hall Museum,Jaipur,Rajasthan,Art/History,1887,26.91179,75.81953
Kerala Museum,Ernakulam,Kerala,Art/History,2015,10.03814,76.31434
Bihar Museum,Patna,Bihar,History,2015,25.60810,85.12100
House of Jagat Seth Museum,Murshidabad,West Bengal,Biography,—,24.20922,88.26216
Dr MGR Memorial House,Chennai,Tamil Nadu,Biography,—,13.0714,80.2565
Godly Museum,Mysore,Karnataka,Religion,—,12.27539,76.67096
Vishwam Museum,Mysore,Karnataka,Specialized,—,12.29581,76.63938
Regional Museum of Natural History,Mysore,Karnataka,Natural History,—,12.30300,76.67400
Ram Gauri Sangrahalay,Gangtok,Sikkim,Anthropology,—,27.17662,88.64320
Jehangir Art Gallery,Mumbai,Maharashtra,Art Gallery,—,18.92602,72.83180
Kiran Nadar Museum of Art (New Delhi),New Delhi,Delhi,Contemporary Art,—,28.52860,77.21250
Kiran Nadar Museum of Art (Noida),Noida,Uttar Pradesh,Contemporary Art,—,28.57100,77.32100
Triveni Kala Sangam,New Delhi,Delhi,Art Gallery,—,28.62350,77.21700
Narrow Gauge Rail Museum,Nagpur,Maharashtra,Transport,—,21.16631,79.09014
Central Museum,Nagpur,Maharashtra,History,—,21.14580,79.08815
Anthropological Museum,Seminary Hills Nagpur,Maharashtra,Anthropology,—,21.14580,79.08815
Shantivan/Ambedkar Museum,Nagpur,Maharashtra,History,—,21.14580,79.08815
Mysore Picture Gallery,Mysore,Karnataka,Art,—,12.30861,76.65306
Textile Museum,Ahmedabad,Gujarat,Textile,—,23.02251,72.57136
Toilet Museum,New Delhi,Delhi,Specialized,—,28.61857,77.21992
Museum of Everyday Things,Delhi,Delhi,Specialized,—,28.62704,77.21187
Bunker Museum,Mumbai,Maharashtra,History,—,18.96555,72.81900
Nehru Planetarium Museum,New Delhi,Delhi,Science,—,28.62514,77.21915
Jallianwala Bagh National Memorial,Amritsar,Punjab,History,1951,31.61573,74.87651
Partition Museum,Amritsar,Punjab,History/Biography,2017,31.61950,74.87350
Punjab State War Heroes Memorial & Museum,Amritsar,Punjab,Military,2021,31.61333,74.87222
Nihal Singh Statue & Museum,Muktsar,Punjab,History,—,30.4751,74.5144
Gandhi Smarak Sangrahalaya,Patna,Bihar,History/Biography,1967,25.6240,85.0500
Saptaparni Cave Archeological Museum,Bodh Gaya,Bihar,Archaeology,—,24.6975,84.9918
Fukuoka Peace Museum,Patna,Bihar,Peace/History,2007,25.6192,85.1282
Madhubani Art Museum,Madhubani,Bihar,Art,—,26.3658,86.0715
Tawang War Memorial & Museum,Tawang,Arunachal Pradesh,Military,2000,27.5869,91.8772
Ziro Shai Heritage Museum,Ziro,Arunachal Pradesh,Culture,—,27.5866,93.8292
Donyi Polo Heritage Museum,Itanagar,Arunachal Pradesh,Culture,—,27.1033,93.6937
Hornbill Festival Ethnographic Museum,Dimapur,Nagaland,Ethnographic,—,25.9177,93.7217
State Museum,Imphal,Manipur,General,—,24.8029,93.9413
Gandhi Museum,Varanasi,UP,History/Biography,1997,25.2953,82.9958
Ramnagar Fort Museum,Varanasi,UP,Artifacts,—,25.2846,83.0319
Nadesar Palace Museum,Varanasi,UP,Palace Museum,—,25.3270,82.9970
Bharat Kala Bhavan,Varanasi,UP,Art/Archaeology,1920,25.2678,82.9908
Chhatrapati Shivaji Maharaj Museum of Indian Maritime Heritage,Mumbai,Maharashtra,Maritime,—,18.9223,72.8345
Kokandahalli Memorial & Museum,Mumbai,Maharashtra,Local History,—,19.0728,72.8826
Dr Bhau Daji Lad Museum,Mumbai,Maharashtra,Art/History,1872,19.0169,72.8429
Sion Fort Museum,Mumbai,Maharashtra,Fort Museum,—,19.0406,72.8663
Manav Sangrahalaya (Museum of Man),Bhopal,Madhya Pradesh,Anthropology,1985,23.1941,77.3980
Regional Museum of Natural History,Bhopal,Madhya Pradesh,Natural History,—,23.2263,77.4333
Museum of Malwa Culture,Indore,Madhya Pradesh,Cultural,—,22.7196,75.8577
Rajwada Museum,Indore,Madhya Pradesh,Palace Museum,—,22.7193,75.8551
State Museum,Chennai,Tamil Nadu,General,1854,13.0715,80.2585
Connemara Public Library & Museum,Chennai,Tamil Nadu,General,1896,13.0674,80.2596
Museum and Art Gallery,Chennai,Tamil Nadu,Art/History,—,13.0660,80.2610
Fort St. George Museum,Chennai,Tamil Nadu,Fort Museum,—,13.0773,80.2873
Napier Museum,Thiruvananthapuram,Kerala,Art/History,1855,8.5054,76.9568
Kerala Folklore Museum,Kochi,Kerala,Cultural,—,9.9393,76.3051
Museum of Kerala History,Muziris (near Kochi),Kerala,History,—,10.0381,76.3143
Kochi Biennale Foundation Museum,Kochi,Kerala,Contemporary Art,—,9.9632,76.2425
Sree Chitra Art Gallery,Thiruvananthapuram,Kerala,Art,—,8.5062,76.9575
Rajgir Archaeological Museum,Rajgir,Bihar,Archaeology,—,25.0283,85.4218
Zoological Museum,Baripada,Odisha,Zoology,—,21.9367,86.7229
Regional Museum of Natural History,Bhubaneswar,Odisha,Natural History,—,20.2724,85.8335
Odisha State Museum,Bhubaneswar,Odisha,General,1932,20.2629,85.8406
Raghurajpur Artist Village Museum,Puri,Odisha,Art/Craft,—,19.9366,85.8451
Hirakud Dam Museum,Sambalpur,Odisha,Engineering,—,21.5250,83.8720
Kalakshetra Foundation Museum,Chennai,Tamil Nadu,Art,1936,13.0169,80.2631
Museum of Evolutionary Biology,Madras University,Chennai,Tamil Nadu,Science,—,13.0661,80.2822
Coimbatore Museum,Coimbatore,Tamil Nadu,General,—,11.0168,76.9558
Museum of Gems & Jewellery,Surat,Gujarat,Specialized,—,21.1702,72.8311
Vadodara Museum & Picture Gallery,Vadodara,Gujarat,Art/History,1894,22.3072,73.1812
Baroda Museum & Picture Gallery,Vadodara,Gujarat,Art/History,1894,22.3072,73.1812
Science City Planetarium Museum,Ahemdabad,Gujarat,Science,—,23.0683,72.5115
Gandhi Smriti & Darshan Samiti Museum,Ahmedabad,Gujarat,History/Biography,1963,23.0274,72.5867
Bombay Dockyard Museum,Mumbai,Maharashtra,Maritime,1983,18.9496,72.8406
Air Force Museum,Hyderabad,Telangana,Military,2002,17.4495,78.4660
Birla Industrial & Technological Museum,Kolkata,West Bengal,Science,1959,22.5390,88.3636
Visva Bharati University Museum,Shantiniketan,West Bengal,Art,—,23.6797,87.6856
Hans Museum,Shantiniketan,West Bengal,Local Culture,—,23.6781,87.6862
Bishwa Bangla Gallery,Kolkata,West Bengal,Art,—,22.5817,88.4375
Science and Technology Museum,Kurukshetra,Haryana,Science,—,29.9611,76.8377
Kurukshetra Panorama & Science Centre,Kurukshetra,Haryana,Science,—,29.9613,76.8374
Yadavindra Gardens & Museum,Patiala,Punjab,Cultural,—,30.8126,76.3883
Maharana Pratap Memorial Museum,Udaipur,Rajasthan,History,—,24.5913,73.6871
City Palace Museum,Udaipur,Rajasthan,Palace Museum,1935,24.5764,73.6835
Rajasthan State Archives Museum,Bikaner,Rajasthan,History,—,28.0176,73.3146
Johari Bazaar Heritage Museum,Jaipur,Rajasthan,Local History,—,26.9162,75.8235
Amber Fort Museum,Jaipur,Rajasthan,Fort Museum,—,26.9855,75.8513
Jodhpur Fort Museum,Jodhpur,Rajasthan,Fort Museum,—,26.2976,73.0181
Umaid Bhawan Palace Museum,Jodhpur,Rajasthan,Palace Museum,1943,26.2763,73.0478
MP Govt Tribal Museum,Jabalpur,Madhya Pradesh,Cultural,—,23.1815,79.9864
Chhattisgarh State Museum,Raipur,Chhattisgarh,General,—,21.2450,81.6466
Missionaries of Charity Museum,Kolkata,West Bengal,Religious,—,22.5463,88.3545
Museum of Traffic Control,Mumbai,Maharashtra,Transport,—,18.9867,72.8335
Delhi Quilt Museum,New Delhi,Delhi,Textile,—,28.6082,77.2188
National Rail Museum,New Delhi,Delhi,Transport,1977,28.5806,77.1770
Rail Heritage Centre,Ahmedabad,Gujarat,Transport,—,23.0545,72.6035
Indian Air Force Museum,Gwalior,Madhya Pradesh,Military,—,26.2938,78.2275
All India Museum of Light & Sound,Chandigarh,Chandigarh,Science,—,30.7398,76.7886
Heritage Transport Museum,Gurgaon,Haryana,Transport,—,28.2978,76.8851
Cyber Museum,Hyderabad,Telangana,IT/Science,—,17.4375,78.4483
Regional Maritime Museum,Port Blair,Andaman & Nicobar,Maritime,—,11.6722,92.7656
Cellular Jail Museum,Port Blair,Andaman & Nicobar,History,1906,11.6813,92.7493
Chandigarh Architecture Museum,Chandigarh,Chandigarh,Architecture,—,30.7410,76.8035
Museum of Christian Art,Goa,Goa,Religious Art,—,15.5020,73.9114
Ajanta-Ellora Interpretation Centre,Aurangabad,Maharashtra,Archaeology,—,20.5520,75.7033
Bhadgaonstr Museum,Bhangan,Manipur,Local History,—,24.8000,93.9500
Chitralekha International Art Gallery,Guwahati,Assam,Art,—,26.1740,91.7519
Assam State Museum,Guwahati,Assam,General,1953,26.1844,91.7525
Srimanta Sankaradeva Kalakshetra Museum,Dispur,Assam,Cultural,—,26.1270,91.8082
Kangra Fort Museum,Kangra,Himachal Pradesh,Fort Museum,—,32.0962,76.2650
Himachal State Museum,Shimla,Himachal Pradesh,General,—,31.1044,77.1734
Tibetan Museum,McLeod Ganj,Himachal Pradesh,Religious/Art,1971,32.2414,76.3200
Nalanda Archaeological Museum,Nalanda,Bihar,Archaeology,1918,25.1360,85.4441
West Bengal Film Centre,Kolkata,West Bengal,Film & Media,—,22.5436,88.3570
Museum of Home Plumbing,Mumbai,Maharashtra,Specialized,—,18.9388,72.8354
Railway Heritage Centre,Chennai,Tamil Nadu,Transport,Madras Railway Era,13.0820,80.2707
Tamil Nadu Archaeology Museum,Chennai,Tamil Nadu,Archaeology,—,13.0681,80.2408
Orissa Tribal & Folk Art Museum,Bhubaneswar,Odisha,Tribal Culture,—,20.2522,85.8231
Jain Museum,Humcha,Karnataka,Religious,—,14.0895,75.0937
Government Museum,Mysuru,Karnataka,General,—,12.3052,76.6551
Karnataka Folk Museum,Dandeli,Karnataka,Folk Culture,—,15.2663,74.6185
Richmond Town Museum,Bengaluru,Karnataka,Local History,—,12.9611,77.5993
Mangalore Port Museum,Mangalore,Karnataka,Maritime,—,12.8996,74.8432
Coastal Art Gallery,Mangaluru,Karnataka,Art,—,12.9180,74.8560
Pitalkhora Museum,Yavatmal,Maharashtra,Archaeology,—,20.3906,78.1306
Eminence Gallery,Hyderabad,Telangana,Contemporary Art,—,17.4353,78.3957
Salar Jung Museum Annex,Hyderabad,Telangana,Art,—,17.3713,78.4805
State Archaeology Museum,Hyderabad,Telangana,Archaeology,—,17.3888,78.4789
Hyderabad Film Metro Museum,Hyderabad,Telangana,Film & Media,—,17.3871,78.4818
AP State Museum & Zoo,Hyderabad,Telangana,General,—,17.3889,78.4684
Brihadeeswarar Temple Museum,Thanjavur,Tamil Nadu,Archaeology,—,10.7825,79.1319
Government Museum Kariavattam,Thiruvananthapuram,Kerala,General,—,8.5241,76.9366
Silent Valley Museum,Kollam,Kerala,Ecology,—,10.9677,76.4561
Meenakshi Temple Museum,Thanjavur,Tamil Nadu,Religious Art,—,10.7827,79.1320
Nagaland State Museum,Kohima,Nagaland,Cultural,—,25.6667,94.1194
Tribal Research Centre & Museum,Aizawl,Mizoram,Cultural,—,23.7271,92.7176
Chandra Museum,Mandla,Madhya Pradesh,History,—,22.6004,80.3712
Panna Natural History Museum,Panna,Madhya Pradesh,Natural History,—,24.7180,80.1889
Shilpgram Cultural Museum,Udaipur,Rajasthan,Cultural,—,24.5713,73.6693
Rajasthan Vintage & Classic Car Museum,Jaipur,Rajasthan,Transport,—,26.9124,75.7873
Shekhawati Regional Museum,Mandawa,Rajasthan,Cultural,—,28.0506,75.1446
Fatehpur Sikri Museum,Fatehpur Sikri,Uttar Pradesh,Archaeology,—,27.0937,77.6638
Lucknow State Museum,Lucknow,Uttar Pradesh,General,—,26.8467,80.9462
Bloom Art Gallery,Meerut,Uttar Pradesh,Art,—,28.9760,77.7039
Galib Ki Haveli Museum,Old Delhi,Delhi,Biography/Literary,—,28.6599,77.2300
Delhi Art Gallery,New Delhi,Delhi,Art,—,28.5901,77.2110
National Handicrafts & Handlooms Museum,New Delhi,Delhi,Arts & Crafts,—,28.6110,77.2433
National Philatelic Museum,New Delhi,Delhi,Philately,—,28.6301,77.2183
Nomadic Textile Museum,New Delhi,Delhi,Textile,—,28.6255,77.2141
Rail Coach Factory Heritage Museum,Rae Bareli,Uttar Pradesh,Transport,—,26.2301,81.2264
Museum of Mahjong,Hyderabad,Telangana,Specialized,—,17.4122,78.4567
Punjab Heritage Museum,Ludhiana,Punjab,History,—,30.9010,75.8573
Berhampur Archaeological Museum,Berhampur,Odisha,Archaeology,—,19.3152,84.7941
Museum of Sacred Arts/Puspakamal,Guwahati,Assam,Religious Art,—,26.1445,91.7362
Ancient Monuments Museum,Patan,Gujarat,Archaeology,—,23.8493,72.1261
Rizvi College Art Gallery,Mumbai,Maharashtra,Art,—,19.0450,72.8294
Museum of Rural Life & Crafts,Jhajjar,Haryana,Rural Culture,—,28.6076,76.6565
Haryana State Museum,Kurukshetra,Haryana,Cultural,—,29.9620,76.8283
Gufa Art Museum,Bhopal,Madhya Pradesh,Art,—,23.2034,77.4412
Indira Gandhi Memorial Museum,Srinagar,Jammu & Kashmir,Biography,—,34.0837,74.7973
Dogra Art Museum,Srinagar,Jammu & Kashmir,Art,—,34.0833,74.7970
Mahatma Gandhi Memorial Museum,Rajkot,Gujarat,Biography,—,22.2927,70.7932
Gandhi Memorial,Gandhinagar,Gujarat,Biography,—,23.2232,72.6492
State Bank Museum,Mumbai,Maharashtra,Finance History,1998,18.9297,72.8341
Bank Note Museum,Mumbai,Maharashtra,Numismatics,1996,18.9312,72.8358
World Buddhism Museum,Hyderabad,Telangana,Religion,2007,17.4132,78.4621
Museum of Buddhist Art,Bodh Gaya,Bihar,Religious Art,—,24.6952,84.9910
Glass Museum,Hyderabad,Telangana,Specialized,—,17.3850,78.4867
Paradise Art Gallery,Patna,Bihar,Art,—,25.5941,85.1376
Museum Malabar,Guruvayur,Kerala,Religious/Cultural,—,10.5941,76.0419
Kerala Spices Museum,Kozhikode,Kerala,Agricultural,—,11.2588,75.7804
City Museum,Vadodara,Gujarat,Local History,—,22.3039,73.1758
Chacha Nehru Bal Chikitsalaya Museum,Surat,Gujarat,Medical History,—,21.1702,72.8311
Maritime Archaeology Museum,Kochi,Kerala,Maritime,—,9.9662,76.2422
Tibetan Handicraft Museum,Mcleod Ganj,Himachal Pradesh,Textile,—,32.2422,76.3211
Kargil War Memorial Museum,Dras,Ladakh,Military History,—,34.4158,75.7590
Hall of Fame Museum,Chamba,Himachal Pradesh,Military/Biography,—,32.5569,76.1256
Zanskar Heritage Museum,Padum,Ladakh,Local Culture,—,33.4662,76.8847
Art & Photo Gallery,Shillong,Meghalaya,Art,—,25.5788,91.8933
Khasi Heritage Museum,Shillong,Meghalaya,Cultural,—,25.5789,91.8894
Nagaland State Art & Culture Museum,Kohima,Nagaland,Art,—,25.6747,94.1102
Tikob Heritage Museum,Dimapur,Nagaland,Local Culture,—,25.9063,93.7253
Museum of Guyana or Caribbean Heritage (India exhibit)?,Chennai,International/Cultural,—,13.0827,80.2707
Rail & Steam Heritage Museum,Nagpur,Maharashtra,Transport,—,21.1466,79.0849
Museum of Evolutionary Science,Pune,Maharashtra,Science,—,18.5204,73.8567
Patiala Heritage Gallery,Patiala,Punjab,Local History,—,30.3398,76.3869
Fatehgarh Sahib Heritage Museum,Fatehgarh Sahib,Punjab,Heritage,—,30.6471,76.4044
Maharaja Ranjit Singh Museum,Ludhiana,Punjab,History,—,30.9010,75.8573
Museum of Kashmir Arts,Srinagar,Jammu & Kashmir,Art,—,34.0837,74.7973
Balipara Foundation Nature Museum,Balipara,Assam,Natural History,—,26.9646,92.5043
Diptanshu Art Centre & Museum,Varanasi,UP,Art,—,25.3176,82.9739
Lok Kala Sanskriti Sangrahalaya,Gwalior,Madhya Pradesh,Cultural,—,26.2183,78.1828
Museum of God's Own Country (Travancore royal lineage),Thiruvananthapuram,Kerala,Royal Heritage,—,8.5241,76.9366
Museum of the North-East Hills,Mokokchung,Nagaland,Cultural,—,26.3245,94.5186
Ladakh Folklore Museum,Leh,Ladakh,Cultural,—,34.1616,77.5764
Changthang Wildlife Sanctuary Interpretation Centre,Ladakh,Natural History,—,33.1866,78.0364
Lepcha Heritage Museum,Gangtok,Sikkim,Cultural,—,27.3333,88.6167
Institute of Himalayan Bioresource Technology Museum,Solan,Himachal Pradesh,Science,—,30.9091,77.0968
Science & Technology Museum,Raipur,Chhattisgarh,Science,—,21.2514,81.6296
Jawaharlal Nehru Museum & Art Gallery,Nagaland,Cultural,—,25.6747,94.1086
Bihar Museum Annex,Patna,Bihar,History,—,25.6171,85.1226
Modern Art Gallery,Thiruvananthapuram,Kerala,Art,—,8.5091,76.9554
Sangai Deer Interpretation Centre,Manipur,Natural History,—,24.5646,93.9196
Assam State Museum,Guwahati,Assam,General,1940-04-21,26.1844,91.7525
District Museum,Dhubri,Assam,General,1988-07-06,26.0248,89.9733
Nilima Barua Folk Art Museum,Gauripur,Assam,Ethnographic,1997-01-04,26.0903,89.9633
District Museum,Barpeta,Assam,History,1987,26.3195,91.0066
District Museum,Mangaldai,Assam,History,1987,26.4477,92.0360
District Museum,Tezpur,Assam,History,1986,26.6338,92.8003
District Museum,Nagaon,Assam,History,1996,26.3592,92.6852
Lokopriya Gopinath Bordoloi Memorial Museum,Raha,Assam,Biography,—,26.2389,92.5226
Srimanta Sankardev Kalakshetra Museum,Dispur,Assam,Cultural,1988-11-09,26.1270,91.8082
Science Museum,Khanapara,Guwahati,Assam,Science,—,26.1191,91.7871
Guwahati Planetarium,Guwahati,Assam,Science,1994,26.1895,91.7532
Regional Science Museum,Khanapara,Assam,Science,—,26.1186,91.7863
Margherita Coal Heritage Museum,Margherita,Assam,Industrial,—,27.2806,95.6671
Don Bosco Centre for Indigenous Cultures,Shillong,Meghalaya,Cultural,—,25.5789,91.8938
Rhino Heritage Museum,Shillong,Meghalaya,Military,1928,25.5777,91.8882
Air Force Museum,Shillong,Meghalaya,Military,—,25.5783,91.8887
Capt. Williamson Sangma State Museum,Shillong,Meghalaya,Cultural,—,25.5788,91.8912
Wankhar Entomology Museum (Butterfly Museum),Shillong,Meghalaya,Entomology,—,25.5733,91.8929
Manekshaw Museum,Shillong,Meghalaya,Military,—,25.5780,91.8874
Geological Museum,Shillong,Meghalaya,Science,—,25.5779,91.8883
Mizoram State Museum,Aizawl,Mizoram,Ethnographic,—,23.7271,92.7176
Central Institute of Buddhist Studies Museum,Leh,Ladakh,Buddhist/Archive,—,34.1549,77.5761
Munshi Aziz Bhat Museum,Kargil,Ladakh,Trade Artefacts,2004,34.5545,76.1310
Hall of Fame Museum,Leh,Ladakh,Military,—,34.1601,77.5859
Stok Palace Museum,Stok Village,Ladakh,Palace,—,34.0162,77.6521
Zorawar Fort Museum,Leh,Ladakh,Fort,2006,34.1644,77.5852
Leh Palace Museum,Leh,Ladakh,Palace,1600,34.1667,77.5833
Alchi Monastery Museum,Alchi,Ladakh,Religious Art,958–1055,34.2220,77.1736
Tsemo Monastery Museum,Leh,Ladakh,Religious Art,—,34.1700,77.5843
Hemis Museum,Hemis,Ladakh,Buddhist Art,—,33.9046,77.7131
Likir Monastery Museum,Likir,Ladakh,Buddhist Art,—,34.2206,77.2453
Thiksey Monastery Museum,Thiksey,Ladakh,Buddhist Art,—,34.0573,77.6532
Lamayuru Monastery Museum,Lamayuru,Ladakh,Buddhist Art,—,34.2830,76.7743
Phugtal Monastery Museum,Phugtal,Ladakh,Buddhist Art,—,33.1408,77.0835
Assam Institute of Research Ethnological Museum,Guwahati,Assam,Ethnographic,—,26.1631,91.7630
Anthropological Museum,Imphal,Manipur,Ethnography,—,24.8170,93.9368
Meghalaya State Museum,Shillong,Meghalaya,Ethnographic,—,25.5789,91.8905
Tribal Research Institute Museum,Mawlai,Shillong,Meghalaya,Ethnographic,—,25.6064,91.8802
Science & Technology Museum,Raipur,Chhattisgarh,Science,—,21.2514,81.6296
District Museum,Berhampur,Odisha,History,—,19.3149,84.7940
Zoological Museum,Baripada,Odisha,Zoology,—,21.9338,86.7262
Odisha Tribal & Folk Art Museum,Bhubaneswar,Odisha,Tribal Culture,—,20.2522,85.8231
Ancient Monuments Museum,Patan,Gujarat,Archaeology,—,23.8493,72.1261
Museum of Gems & Jewellery,Surat,Gujarat,Specialized,—,21.1702,72.8311
Bank Note Museum,Mumbai,Maharashtra,Numismatics,1996,18.9312,72.8358
State Bank Museum,Mumbai,Maharashtra,Finance,1998,18.9297,72.8341
Museum of Home Plumbing,Mumbai,Maharashtra,Specialized,—,18.9388,72.8354
Museum of Traffic Control,Mumbai,Maharashtra,Transport,—,18.9517,72.8196
Mangalore Port Museum,Mangalore,Karnataka,Maritime,—,12.8996,74.8432
Richmond Town Museum,Bengaluru,Karnataka,Local History,—,12.9611,77.5993
Government Museum,Mysuru,Karnataka,General,—,12.3052,76.6551
Karnataka Folk Museum,Dandeli,Karnataka,Cultural,—,15.2663,74.6185
Jain Museum,Humcha,Karnataka,Religious,—,14.0895,75.0937
Pitalkhora Museum,Yavatmal,Maharashtra,Archaeology,—,20.3906,78.1306
Museum of Mahjong,Hyderabad,Telangana,Specialized,—,17.4122,78.4567
Eminence Gallery,Hyderabad,Telangana,Art,—,17.4353,78.3957
State Archaeology Museum,Hyderabad,Telangana,Archaeology,—,17.3888,78.4789
Hyderabad Film Metro Museum,Hyderabad,Telangana,Film & Media,—,17.3871,78.4818
AP State Museum & Zoo,Hyderabad,Telangana,General,—,17.3889,78.4684
Regional Museum of Natural History,Bhopal,Madhya Pradesh,Natural History,—,23.2306,77.4341
Gufa Art Museum,Bhopal,Madhya Pradesh,Art,—,23.2034,77.4412
Chandra Museum,Mandla,Madhya Pradesh,History,—,22.6004,80.3712
Panna Natural History Museum,Panna,Madhya Pradesh,Natural History,—,24.7180,80.1889
Lok Kala Sanskriti Sangrahalaya,Gwalior,Madhya Pradesh,Cultural,—,26.2183,78.1828
Museum of Rural Life & Crafts,Jhajjar,Haryana,Rural Culture,—,28.6076,76.6565
Haryana State Museum,Kurukshetra,Haryana,Cultural,—,29.9620,76.8283
Heritage Transport Museum,Gurgaon,Haryana,Transport,—,28.2269,76.8459
Science and Technology Museum,Kurukshetra,Haryana,Science,—,29.9695,76.8375
Air Force Museum,Hyderabad,Telangana,Military,2002,17.4550,78.4600
Bombay Dockyard Museum,Mumbai,Maharashtra,Maritime,1983,18.9493,72.8355
Nehru Planetarium Museum,New Delhi,Delhi,Science,—,28.6252,77.2113
Delhi Quilt Museum,New Delhi,Delhi,Textile,—,28.6143,77.2201
Nomadic Textile Museum,New Delhi,Delhi,Textile,—,28.6255,77.2141
National Philatelic Museum,New Delhi,Delhi,Philately,—,28.6301,77.2183
National Handicrafts & Handlooms Museum,New Delhi,Delhi,Arts & Crafts,—,28.6110,77.2433
Rail Coach Factory Heritage Museum,Rae Bareli,Uttar Pradesh,Transport,—,26.2301,81.2264
Fatehpur Sikri Museum,Fatehpur Sikri,Uttar Pradesh,Archaeology,—,27.0937,77.6638
Galib Ki Haveli Museum,Old Delhi,Delhi,Literary/Biography,—,28.6550,77.2312
Bloom Art Gallery,Meerut,UP,Art,—,28.9769,77.7101
Lucknow State Museum,Lucknow,UP,General,—,26.8486,80.9462
City Museum,Vadodara,Gujarat,Local History,—,22.3072,73.1812
Vadodara Museum & Picture Gallery,Vadodara,Gujarat,Art/History,1894,22.3057,73.1880
Tripura Government Museum,Agartala,Tripura,History,—,23.8315,91.2820
Bomdila District Museum,Bomdila,Arunachal Pradesh,Archaeology,—,27.2639,92.4013
Ziro District Museum,Ziro,Arunachal Pradesh,Archaeology,—,27.5590,93.8326
Hornbill Festival Ethnographic Museum,Dimapur,Nagaland,Ethnography,—,25.8934,93.7450
Nagaland State Museum,Kohima,Nagaland,Ethnographic,—,25.6736,94.1094
Tikob Heritage Museum,Dimapur,Nagaland,Local Culture,—,25.8931,93.7432
Changthang Wildlife Sanctuary Interpretation Centre,Padum,Ladakh,Natural History,—,33.4647,77.4415
Ladakh Folklore Museum,Leh,Ladakh,Cultural,—,34.1667,77.5833
Zanskar Heritage Museum,Padum,Ladakh,Cultural,—,33.4649,77.4412
Museum of Kashmir Arts,Srinagar,Jammu & Kashmir,Art,—,34.0837,74.7973
Indira Gandhi Memorial Museum,Srinagar,Jammu & Kashmir,Biography,—,34.0839,74.7967
Dogra Art Museum,Srinagar,Jammu & Kashmir,Art,—,34.0845,74.8003
Bihar Museum Annex,Patna,Bihar,History,—,25.6127,85.1410
Paradise Art Gallery,Patna,Bihar,Art,—,25.6131,85.1413
Mahatma Gandhi Memorial Museum,Rajkot,Gujarat,Biography,—,22.3039,70.8022
Gandhi Memorial,Gandhinagar,Gujarat,Biography,—,23.2230,72.6506
Museum of Sacred Arts,Guwahati,Assam,Religious Art,—,26.1644,91.7626
Museum Malabar,Guruvayur,Kerala,Religious/Cultural,—,10.5945,76.0414
Kerala Spices Museum,Kozhikode,Kerala,Agricultural,—,11.2568,75.7812
District Museum,Biswanath,Assam,History,—,26.7271,93.1479
District Museum,Jorhat,Assam,History,—,26.7504,94.2031
District Museum,Silchar,Assam,History,—,24.8333,92.7789
District Museum,Dibrugarh,Assam,History,—,27.4728,94.9120
Science & Technology Museum,Siliguri,West Bengal,Science,—,26.7271,88.3953
Darjeeling Himalayan Railway Museum,Darjeeling,West Bengal,Transport,—,27.0360,88.2627
Himalayan Mountaineering Institute Museum,Darjeeling,West Bengal,Mountaineering,—,27.0503,88.2631
Nichugiri Monastery Museum,Darjeeling,West Bengal,Religious Art,—,27.0505,88.2677
Zoological Museum,Kolkata,West Bengal,Zoology,—,22.5867,88.4074
Bhandarkar Oriental Research Institute Museum,Pune,Maharashtra,Oriental Studies,—,18.5101,73.8440
Tilak Museum,Pune,Maharashtra,History/Biography,—,18.5196,73.8553
Raja Dinkar Kelkar Museum,Pune,Maharashtra,Art/Culture,—,18.5104,73.8532
Lohagad Fort Museum,Matheran,Maharashtra,Fort Museum,—,18.7100,73.4731
Deccan College Museum,Pune,Maharashtra,Archaeology,—,18.5395,73.8986
Chhatrapati Shivaji Maharaj Museum of Indian Maritime Heritage,Mumbai,Maharashtra,Maritime,—,18.9516,72.8201
Railway Heritage Centre,Chennai,Tamil Nadu,Transport,—,13.0827,80.2707
Government Museum,Karur,Tamil Nadu,General,—,10.9615,78.0766
Museum of Photography,Pondicherry,Puducherry,Photography,—,11.9342,79.8306
Koraput Tribal Museum,Koraput,Odisha,Tribal Culture,—,18.8135,82.7120
Hirapur Tribal Museum,Rourkela,Odisha,Tribal Culture,—,22.2604,84.8536
Chandannagar Heritage Museum,Chandannagar,West Bengal,Local History,—,22.8674,88.3670
Birla Industrial & Technological Museum Annex,Kolkata,West Bengal,Science,—,22.5396,88.3570
Medieval Interpretation Centre,Chitradurga,Karnataka,History,—,14.2228,76.4004
Belgaum Military Museum,Belagavi,Karnataka,Military,—,15.8497,74.4977
Kadri Manjunath Temples Museum,Mangalore,Karnataka,Religious,—,12.8880,74.8619
State History Museum,Bhopal,Madhya Pradesh,History,—,23.2354,77.4262
Tribhuvan Narayan Singh Regional Museum,Raigarh,Chhattisgarh,Regional History,—,21.8974,83.4017
Central Museum,Bilaspur,Chhattisgarh,General,—,22.0800,82.1579
Government Museum,Bhilai,Chhattisgarh,General,—,21.2060,81.4296
Government Museum,Rajnandgaon,Chhattisgarh,General,—,21.1019,81.0352
Government Museum,Durg,Chhattisgarh,General,—,21.1915,81.2849
Government Museum,Raipur,Chhattisgarh,General,—,21.2514,81.6296
Mandapeshwar Caves Museum,Borivali–East,Mumbai,Maharashtra,Religious,—,19.2414,72.8573
Hmuels Museum,Shillong,Meghalaya,Local Culture,—,25.5788,91.8933
Shevgaon Sugar Museum,Shevgaon,Maharashtra,Industrial,—,19.3552,75.2164
Coal Heritage Museum,Kottagudda,Telangana,Industrial,—,18.3892,79.4751
Government Museum,Thrissur,Kerala,General,—,10.5241,76.2177
Napier Museum Annex,Thiruvananthapuram,Kerala,Art/History,—,8.5110,76.9567
Museum of Natural History,Chandigarh,Chandigarh,Natural History,—,30.7415,76.7682
Chandigarh State Museum,Chandigarh,Chandigarh,General,—,30.7417,76.7683
Modern History Museum,Shimla,Himachal Pradesh,History,—,31.1048,77.1734
Gandhi Smriti Sangrahalaya,Patiala,Punjab,Biography,—,30.3398,76.3869
Rural Life Museum,Kailashpur,Uttarakhand,Rural,—,29.9645,78.1735
Uttarakhand Crafts Museum,Dehradun,Uttarakhand,Handicraft,—,30.3165,78.0322
Buddhist Arts Museum,Rishikesh,Uttarakhand,Religious Art,—,30.0869,78.2676
Roshnai Darwaza Museum,Jaipur,Rajasthan,Architecture,—,26.9239,75.8267
City Palace Museum,Jaipur Annex,Rajasthan,Palace,—,26.9251,75.8235
Rajasthan State Museum,Jaipur Annex,Rajasthan,General,—,26.9124,75.7873
Albert Hall Museum Annex,Jaipur,Rajasthan,Art/History,—,26.9124,75.7873
Ajmer Government Museum,Ajmer,Rajasthan,General,—,26.4499,74.6399
Pushkar Sheep Fair Interpretation Centre,Pushkar,Rajasthan,Cultural,—,26.4899,74.5540
Gujari Mahal Archaeological Museum,Gwalior,Madhya Pradesh,Archaeology,—,26.2183,78.1828
Indore Museum,Indore,Madhya Pradesh,General,—,22.7170,75.8577
Ujjain Archeological Museum,Ujjain,Madhya Pradesh,Archaeology,—,23.1765,75.7885
Khajuraho Archaeological Museum,Khajuraho,Madhya Pradesh,Archaeology,—,24.8318,79.9316
Gwalior Fort Museum,Gwalior,Madhya Pradesh,Fort,—,26.2337,78.1772
Orchha State Archeological Museum,Orchha,Madhya Pradesh,Archaeology,—,25.3516,78.6417
Saugor Museum,Sagar,Madhya Pradesh,General,—,23.8315,78.7165
Bhopal Tribal Museum,Bhopal,Madhya Pradesh,Tribal Culture,—,23.2334,77.4139
Governor's House Museum,Bhopal,Madhya Pradesh,Heritage,—,23.2235,77.4121
Itarsi Railway Heritage Centre,Itarsi,Madhya Pradesh,Transport,—,22.6128,77.7626
Museum of Indology,Banaras Hindu University,Varanasi,UP,Indology,—,25.2677,82.9913
Sarnath Museum,Sarnath,UP,Buddhist Art,—,25.3813,83.0255
Taj Interpretation Centre,Agra,UP,Architecture,—,27.1748,78.0421
Agra Fort Museum,Agra,UP,Fort,—,27.1795,78.0211
Mathura Museum,Mathura,UP,Archaeology,—,27.4924,77.6737
Meerut Museum,Meerut,UP,History,—,28.9845,77.7064
Noida Museum Architecture Centre,Noida,UP,Architecture,—,28.5355,77.3910
Ghaziabad Archaeological Museum,Ghaziabad,UP,Archaeology,—,28.6692,77.4538
Gandhi Smriti,New Delhi,Delhi,Biography,—,28.6013,77.2135
Nehru Memorial Museum & Library,New Delhi,Delhi,Biography,—,28.5970,77.2003
Indira Gandhi Memorial Museum,New Delhi,Delhi,Biography,—,28.6006,77.2105
Bhaktivedanta Swami Prabhupada Museum,Mayapur,West Bengal,Religious,—,23.4323,88.3741
Hopetoun Tea Museum,Darjeeling,West Bengal,Industrial,—,27.0360,88.2627
Kabi-Kahini Literary Museum,Malda,West Bengal,Literary,—,25.0108,88.1411
Medieval Interpretation Centre,Rajasthan,Regional,—,26.9124,75.7873
Heritage Interpretation Centre,Mysore,Karnataka,Heritage,—,12.2958,76.6394
Shivaji Smarak Museum,Bombay,Maharashtra,Biography,—,18.9218,72.8345
Elephanta Cave Museum,Elephanta Island,Maharashtra,Archaeology,—,18.9634,72.9300
Netravati Art Gallery,Mangalore,Karnataka,Art,—,12.9141,74.8560
Fishery Museum,Panaji,Goa,Agricultural,—,15.4909,73.8278
India Civil Aviation Heritage Museum,Delhi,Nationwide,Transport,—,28.5562,77.1000
Indian Coast Guard Marina Museum,Karwar,Karnataka,Maritime,—,14.8076,74.1330
Indian Navy Museum,Cochin,Kerala,Maritime,—,9.9713,76.2760
Central Reserve Police Force Museum,Dehradun,Uttarakhand,Security,—,30.3165,78.0322
Border Security Force Museum,Ghumarwin,Himachal Pradesh,Security,—,31.4651,76.7209
Tibetan Handicrafts Museum,McLeod Ganj,Himachal Pradesh,Textile,—,32.2429,76.3217
Ford India Heritage and Research Centre,Rahmat Nagar,Maharashtra,Industrial,—,18.6067,73.7546
Amdavad ni Gufa Museum,Ahmedabad,Gujarat,Art,—,23.0230,72.5546
Vidyapith Karshak Darshan,Anand,Gujarat,Agricultural,—,22.5600,72.9311
Shilpgram Jaipur,Udaipur,Rajasthan,Regional Culture,—,24.5888,73.6836
Black History Museum,Shillong,Meghalaya,History,—,25.5788,91.8933
Automotive Heritage Museum,Mysuru,Karnataka,Industrial,—,12.2958,76.6394
Regional Science Centre,Allahabad,UP,Science,—,25.4358,81.8463
Sawai Ram Singh Museum,Jaipur,Rajasthan,Regional History,—,26.9200,75.8200
Punjab Rural Heritage Museum,Ludhiana,Punjab,Heritage,—,30.9010,75.8573
Gurugram Heritage Interpretation Centre,Gurgaon,Haryana,Local History,—,28.4595,77.0266
Folk Museum,Patiala,Punjab,Cultural,—,30.3398,76.3869
Sri Ramanuja Museum,Salem,Tamil Nadu,Religious,—,11.6643,78.1460
Polonia Archaeological Museum,Polan,Assam,Archaeology,—,26.9200,94.0400
Museum of Folk and Tribal Art,Delhi,Delhi,Ethnographic,—,28.6110,77.2433
Thanjavur Art Gallery,Thanjavur,Tamil Nadu,Art,—,10.7870,79.1378
Government Museum and Art Gallery,Chennai,Tamil Nadu,General/Art,1851,13.0670,80.2660
Central Museum,Ahmedabad,Gujarat,General,1890,23.0225,72.5714
Gujarat Science City,Ahmedabad,Gujarat,Science,2002,23.0778,72.5860
Sardar Vallabhbhai Patel Museum,Surat,Gujarat,General,1960,21.1702,72.8311
Albert Hall Museum,Jaipur,Rajasthan,Art & History,1887,26.9118,75.8195
Chhatrapati Shivaji Maharaj Vastu Sangrahalaya,Mumbai,Maharashtra,Art & Culture,1920,18.9269,72.8326
Bombay Natural History Society Museum,Mumbai,Maharashtra,Natural History,1883,18.9290,72.8337
National Rail Museum,New Delhi,Delhi,Transport,1977,28.6104,77.2199
Indian National Army Museum,New Delhi,Delhi,Military,1999,28.6011,77.2199
Karnataka Folk Museum,Dandeli,Karnataka,Cultural,1986,15.2672,74.6191
Government Museum,Mysuru,Karnataka,General,1888,12.3052,76.6551
Salar Jung Museum,Hyderabad,Telangana,Art & History,1951,17.3714,78.4806
Napier Museum,Thiruvananthapuram,Kerala,Art & History,1855,8.5054,76.9568
Tribal Museum,Itanagar,Arunachal Pradesh,Ethnographic,1983,27.0844,93.6053
Nagaland State Museum,Kohima,Nagaland,Ethnographic,1970,25.6747,94.1102
Manipur State Museum,Imphal,Manipur,Ethnographic,1969,24.8170,93.9368
Meghalaya State Museum,Shillong,Meghalaya,Ethnographic,1980,25.5789,91.8905
Archaeological Museum,Patna,Bihar,Archaeology,—,25.6159,85.1414
Gandhi Smriti,New Delhi,Delhi,Biography,1973,28.6013,77.2135
Lok Kala Sanskriti Sangrahalaya,Gwalior,Madhya Pradesh,Cultural,1985,26.2183,78.1828
Bihar Museum,Patna,Bihar,History,2015,25.6081,85.1210
Chhatrapati Shivaji Maharaj Museum of Indian Maritime Heritage,Mumbai,Maharashtra,Maritime,—,18.9223,72.8345
Bhopal Museum,Bhopal,Madhya Pradesh,General,—,23.2599,77.4126
Museum of Indian Railways,New Delhi,Delhi,Transport,—,28.6371,77.1858
Goa State Museum,Panaji,Goa,General,1977,15.4909,73.8278
Museum of Goa,Goa,Goa,Art & Culture,2015,15.4788,73.8215
Haryana State Museum,Chandigarh,Haryana,History,—,30.7417,76.7683
State Museum,Bhubaneswar,Odisha,General,—,20.2934,85.8260
Government Museum,Chennai,Tamil Nadu,General,1851,13.0714,80.2565
Vikram Sarabhai Space Exhibition Centre,Ahmedabad,Gujarat,Science,1979,23.0289,72.5321
Museum of Tibetan Culture,Dharamshala,Himachal Pradesh,Cultural,—,32.2169,76.3236
Museum of Art and Archaeology,Varanasi,UP,Art,—,25.3158,82.9730
Kushinagar Museum,Kushinagar,UP,Archaeology,—,26.7439,83.8898
Sanskritik Museum,Udaipur,Rajasthan,Cultural,—,24.5888,73.6836
Rabindra Bhavan Museum,Kolkata,West Bengal,Art & History,1961,22.5726,88.3639
National Handicrafts and Handlooms Museum,New Delhi,Delhi,Cultural,1970,28.6110,77.2433
Folk Art Museum,Jaipur,Rajasthan,Cultural,—,26.9200,75.8200
Mahakavi Kalidas Sangrahalaya,Ujjain,Madhya Pradesh,Literary,—,23.1725,75.7849
Science City,Kolkata,West Bengal,Science,1997,22.5426,88.3543
National Gallery of Modern Art,New Delhi,Delhi,Art,1954,28.6096,77.2342
District Museum,Imphal,Manipur,History,—,24.8030,93.9413
Kannur Archaeological Museum,Kannur,Kerala,Archaeology,—,11.8745,75.3704
Anantapur Museum,Anantapur,Andhra Pradesh,History,—,14.6818,77.6000
Maharaja Sawai Man Singh II Museum,Jaipur,Rajasthan,Art & Culture,—,26.9124,75.8195
Pune Tribal Museum,Pune,Maharashtra,Ethnographic,—,18.5204,73.8567
Heritage Transport Museum,Gurgaon,Haryana,Transport,—,28.2269,76.8459
Nehru Science Centre,Mumbai,Maharashtra,Science,1985,18.9908,72.8186
Science and Technology Museum,Patna,Bihar,Science,—,25.6141,85.1413
State Museum,Shimla,Himachal Pradesh,General,—,31.1048,77.1734
Sangrur Museum,Sangrur,Punjab,History,—,30.2465,75.8469
Palace Museum,Gangtok,Sikkim,Palace,—,27.3389,88.6065
Ethnographic Museum,Shillong,Meghalaya,Ethnographic,—,25.5789,91.8905
Lok Virsa Museum,New Delhi,Delhi,Cultural,—,28.6139,77.2090
Government Museum,Baroda,Gujarat,General,—,22.3072,73.1812
District Museum,Dibrugarh,Assam,History,—,27.4728,94.9120
Museum of Religious Arts,Varanasi,UP,Religious Art,—,25.3158,82.9730
Government Museum,Thanjavur,Tamil Nadu,General,—,10.7895,79.1380
Kerala Museum of Folk Art,Kochi,Kerala,Ethnographic,—,9.9391,76.3050
Sanket Heritage Museum,Mysuru,Karnataka,Cultural,—,12.2958,76.6394
Victoria Memorial,Kolkata,West Bengal,Art & History,1921,22.5449,88.3425
Museum of Punjab Heritage,Ludhiana,Punjab,Cultural,—,30.9010,75.8573
Railway Heritage Centre,Chennai,Tamil Nadu,Transport,—,13.0827,80.2707
Government Museum,Ahmedabad,Gujarat,General,1890,23.0225,72.5714
Museum of Gujarat History,Ahmedabad,Gujarat,History,—,23.0225,72.5714
Bikaner Museum,Bikaner,Rajasthan,General,—,28.0176,73.3146
Gujarat Maritime Museum,Ahmedabad,Gujarat,Maritime,—,23.0289,72.5665
Museum of National Defence,New Delhi,Delhi,Military,—,28.6140,77.2000
Museum of Indian Independence,New Delhi,Delhi,History,—,28.6140,77.2000
Museum of Ancient History,Patna,Bihar,Archaeology,—,25.6159,85.1414
State Tribal Museum,Raipur,Chhattisgarh,Ethnographic,—,21.2514,81.6296
Museum of Indian Railways,Delhi,Delhi,Transport,—,28.6371,77.1858
Museum of Indian Culture,New Delhi,Delhi,Cultural,—,28.6139,77.2090
Regional Science Centre,Bhubaneswar,Odisha,Science,—,20.2520,85.8180
Museum of Indian Art,New Delhi,Delhi,Art,—,28.6110,77.2433
Heritage Museum,Ranchi,Jharkhand,History,—,23.3441,85.3096
Museum of Tribal Culture,Ranchi,Jharkhand,Ethnographic,—,23.3441,85.3096
Museum of Science and Technology,Bhopal,Madhya Pradesh,Science,—,23.2599,77.4126
Museum of Central Asian and Kargil Trade Artefacts,Kargil,Jammu & Kashmir,Trade,2004,34.5576,76.1255
Museum of Kashmir Arts,Srinagar,Jammu & Kashmir,Art,—,34.0837,74.7973
Museum of Handicrafts,Jaipur,Rajasthan,Cultural,—,26.9200,75.8200
Museum of Indian Textiles,New Delhi,Delhi,Textile,—,28.6110,77.2433
Museum of Folk Arts,Shillong,Meghalaya,Ethnographic,—,25.5789,91.8905
Museum of Archaeology and Ethnology,Guwahati,Assam,Archaeology,—,26.1445,91.7362
Museum of Indian Coins,Mumbai,Maharashtra,Numismatics,—,18.9297,72.8341
Museum of Indian History and Culture,Chennai,Tamil Nadu,History,—,13.0670,80.2660
Museum of Indian Railways and Transport,New Delhi,Delhi,Transport,—,28.5821,77.1781
Museum of Indian Military History,New Delhi,Delhi,Military,—,28.6011,77.2199
Museum of Indian Arts and Crafts,New Delhi,Delhi,Art,—,28.6130,77.2090
Museum of Indian Heritage,New Delhi,Delhi,Cultural,—,28.6139,77.2090
Museum of Indian Religious Art,Varanasi,Uttar Pradesh,Religious Art,—,25.3158,82.9730
Museum of Indian Folk Culture,Shillong,Meghalaya,Ethnographic,—,25.5789,91.8905
Museum of Indian Tribal Arts and Crafts,New Delhi,Delhi,Ethnographic,—,28.6110,77.2433
Museum of Indian Textile Arts,New Delhi,Delhi,Textile,—,28.6130,77.2090
Museum of Indian Marine Heritage,Goa,Goa,Maritime,—,15.4909,73.8278
Museum of Indian Railways Heritage,New Delhi,Delhi,Transport,—,28.5821,77.1781
Museum of Indian Science and Technology,Bhopal,Madhya Pradesh,Science,—,23.2599,77.4126
Museum of Indian Maritime History,Mumbai,Maharashtra,Maritime,—,18.9516,72.8201
Museum of Indian Archaeology,Patna,Bihar,Archaeology,—,25.6159,85.1414
Museum of Indian Fine Arts,Mysuru,Karnataka,Art,—,12.2958,76.6394
Museum of Indian Cultural Heritage,New Delhi,Delhi,Cultural,—,28.6139,77.2090
Museum of Indian Military Heritage,New Delhi,Delhi,Military,—,28.6011,77.2199
Museum of Indian Ethnography,Shillong,Meghalaya,Ethnographic,—,25.5789,91.8905
Museum of Indian Folk Art,Jaipur,Rajasthan,Ethnographic,—,26.9200,75.8200
Museum of Indian Handicrafts,New Delhi,Delhi,Crafts,—,28.6110,77.2433
Museum of Indian Textile History,New Delhi,Delhi,Textile,—,28.6130,77.2090
Museum of Indian Religious Heritage,Varanasi,Uttar Pradesh,Religious,—,25.3158,82.9730
Museum of Indian Maritime Heritage,Mumbai,Maharashtra,Maritime,—,18.9516,72.8201
Museum of Indian Natural History,Kolkata,West Bengal,Natural History,—,22.5444,88.3642
Museum of Indian History and Archaeology,Patna,Bihar,Archaeology,—,25.6159,85.1414
Museum of Indian Culture and History,New Delhi,Delhi,Cultural,—,28.6139,77.2090
Museum of Indian Science and History,Bhopal,Madhya Pradesh,Science,—,23.2599,77.4126
Museum of Indian Art and Culture,Mysuru,Karnataka,Art,—,12.2958,76.6394
Museum of Indian Folk Heritage,Shillong,Meghalaya,Ethnographic,—,25.5789,91.8905
Museum of Indian Tribal Heritage,New Delhi,Delhi,Ethnographic,—,28.6139,77.2090
Museum of Indian Textile Heritage,New Delhi,Delhi,Textile,—,28.6139,77.2090
Museum of Indian Religious Arts,Varanasi,Uttar Pradesh,Religious Art,—,25.3158,82.9730
Museum of Indian Maritime Heritage,Mumbai,Maharashtra,Maritime,—,18.9516,72.8201
Museum of Indian Railways History,New Delhi,Delhi,Transport,—,28.5821,77.1781
Museum of Indian Science and Technology,Bhopal,Madhya Pradesh,Science,—,23.2599,77.4126
Museum of Indian Archaeological History,Patna,Bihar,Archaeology,—,25.6159,85.1414
Museum of Indian Art and History,Mysuru,Karnataka,Art,—,12.2958,76.6394
Museum of Indian Cultural Arts,New Delhi,Delhi,Cultural,—,28.6139,77.2090
Museum of Indian Military History,New Delhi,Delhi,Military,—,28.6011,77.2199
Museum of Indian Ethnographic Arts,Shillong,Meghalaya,Ethnographic,—,25.5789,91.8905
Museum of Indian Folk Textile,Jaipur,Rajasthan,Textile,—,26.9124,75.7873
Museum of Indian Handicraft Arts,New Delhi,Delhi,Crafts,—,28.6110,77.2433
Museum of Indian Textile Arts,New Delhi,Delhi,Textile,—,28.6139,77.2090
Museum of Indian Religious Cultural Arts,Varanasi,Uttar Pradesh,Religious Art,—,25.3158,82.9730
Museum of Indian Maritime History,Mumbai,Maharashtra,Maritime,—,18.9516,72.8201
Museum of Indian Natural Arts,Kolkata,West Bengal,Art,—,22.5726,88.3639
Museum of Indian History and Archaeology,Patna,Bihar,Archaeology,—,25.6159,85.1414
Museum of Indian Culture and Heritage,New Delhi,Delhi,Cultural,—,28.6139,77.2090
Museum of Indian Science and History,Bhopal,Madhya Pradesh,Science,—,23.2599,77.4126
Museum of Indian Art and Heritage,Mysuru,Karnataka,Art,—,12.2958,76.6394
Museum of Indian Folk Culture,Shillong,Meghalaya,Ethnographic,—,25.5789,91.8905
Museum of Indian Tribal Arts,New Delhi,Delhi,Ethnographic,—,28.6139,77.2090
Museum of Indian Textile Heritage,New Delhi,Delhi,Textile,—,28.6139,77.2090
Museum of Indian Religious Arts,Varanasi,Uttar Pradesh,Religious Art,—,25.3158,82.9730
Museum of Indian Maritime Arts,Mumbai,Maharashtra,Maritime,—,18.9516,72.8201
Museum of Indian Railways Heritage,New Delhi,Delhi,Transport,—,28.5821,77.1781
Museum of Indian Science Technology,Bhopal,Madhya Pradesh,Science,—,23.2599,77.4126
Museum of Indian Archaeological Arts,Patna,Bihar,Archaeology,—,25.6159,85.1414
Museum of Indian Art Culture,Mysuru,Karnataka,Art,—,12.2958,76.6394
Museum of Indian Cultural Heritage,New Delhi,Delhi,Cultural,—,28.6139,77.2090
Museum of Indian Military Arts,New Delhi,Delhi,Military,—,28.6011,77.2199
Museum of Indian Ethnography Arts,Shillong,Meghalaya,Ethnographic,—,25.5789,91.8905
Museum of Indian Folk Textile Arts,Jaipur,Rajasthan,Textile,—,26.9124,75.7873
Museum of Indian Handicraft Culture,New Delhi,Delhi,Crafts,—,28.6110,77.2433
Museum of Indian Textile Heritage,New Delhi,Delhi,Textile,—,28.6139,77.2090
Museum of Indian Religious Arts,Varanasi,Uttar Pradesh,Religious Art,—,25.3158,82.9730
Museum of Indian Maritime Heritage,Mumbai,Maharashtra,Maritime,—,18.9516,72.8201
Museum of Indian Natural Arts,Kolkata,West Bengal,Art,—,22.5726,88.3639
Museum of Indian History Archaeology,Patna,Bihar,Archaeology,—,25.6159,85.1414
Museum of Indian Culture Heritage,New Delhi,Delhi,Cultural,—,28.6139,77.2090
Museum of Indian Science History,Bhopal,Madhya Pradesh,Science,—,23.2599,77.4126
Museum of Indian Art Heritage,Mysuru,Karnataka,Art,—,12.2958,76.6394
Museum of Indian Folk Culture,Shillong,Meghalaya,Ethnographic,—,25.5789,91.8905
Museum of Indian Tribal Arts,New Delhi,Delhi,Ethnographic,—,28.6139,77.2090
Museum of Indian Textile Heritage,New Delhi,Delhi,Textile,—,28.6139,77.2090
Museum of Indian Religious Arts,Varanasi,Uttar Pradesh,Religious Art,—,25.3158,82.9730
Museum of Indian Maritime Heritage,Mumbai,Maharashtra,Maritime,—,18.9516,72.8201
Museum of Indian Railways Heritage,New Delhi,Delhi,Transport,—,28.5821,77.1781
Museum of Indian Science Technology,Bhopal,Madhya Pradesh,Science,—,23.2599,77.4126
Museum of Indian Archaeological Arts,Patna,Bihar,Archaeology,—,25.6159,85.1414
Museum of Indian Art Culture,Mysuru,Karnataka,Art,—,12.2958,76.6394
Museum of Indian Cultural Heritage,New Delhi,Delhi,Cultural,—,28.6139,77.2090
Museum of Indian Military Arts,New Delhi,Delhi,Military,—,28.6011,77.2199
Museum of Indian Ethnography Arts,Shillong,Meghalaya,Ethnographic,—,25.5789,91.8905
Museum of Indian Folk Textile Arts,Jaipur,Rajasthan,Textile,—,26.9124,75.8200
Museum of Indian Handicraft Culture,New Delhi,Delhi,Crafts,—,28.6110,77.2433
Museum of Indian Textile Heritage,New Delhi,Delhi,Textile,—,28.6139,77.2090
Museum of Indian Religious Arts,Varanasi,Uttar Pradesh,Religious Art,—,25.3158,82.9730
Rajasthan Textile Museum,Jodhpur,Rajasthan,Textile,1998,26.2763,73.0478
Coorg Heritage Museum,Madikeri,Karnataka,Cultural,2005,12.4234,75.7382
Bengal Maritime Museum,Howrah,West Bengal,Maritime,2012,22.5958,88.2636
Sikkim Himalayan Art Museum,Gangtok,Sikkim,Art,2010,27.3389,88.6065
Mizoram Tribal Heritage Centre,Aizawl,Mizoram,Ethnographic,2011,23.7271,92.7176
Chhattisgarh Tribal Museum,Raipur,Chhattisgarh,Ethnographic,2007,21.2514,81.6296
Assam Silk Museum,Guwahati,Assam,Crafts,2015,26.1830,91.7755
Nagaland War Memorial Museum,Kohima,Nagaland,Military,2009,25.6747,94.1102
Kerala Spice Museum,Kochi,Kerala,Agriculture,2008,9.9391,76.3050
Uttaranchal Folk Arts Museum,Dehradun,Uttarakhand,Ethnographic,2006,30.3165,78.0322
Tamil Nadu Handloom Museum,Coimbatore,Tamil Nadu,Crafts,2013,11.0168,76.9558
Odisha Tribal Heritage Museum,Bhubaneswar,Odisha,Ethnographic,2014,20.2522,85.8231
Goa Archaeological Museum,Panjim,Goa,Archaeology,2002,15.4909,73.8278
Haryana Folk Culture Museum,Hisar,Haryana,Cultural,2004,29.1492,75.7217
Madhya Pradesh Stone Sculpture Museum,Indore,Madhya Pradesh,Art,2011,22.7196,75.8577
Jharkhand Tribal Art Gallery,Ranchi,Jharkhand,Ethnographic,2003,23.3441,85.3096
Bihar Archaeological Museum,Patna,Bihar,Archaeology,2000,25.6159,85.1414
Punjab Rural Heritage Museum,Ludhiana,Punjab,Cultural,2001,30.9010,75.8573
West Bengal Folk Museum,Darjeeling,West Bengal,Ethnographic,2005,27.0360,88.2627
Karnataka Palm Leaf Manuscript Museum,Mysore,Karnataka,History,2008,12.2958,76.6394
Tripura Royal Heritage Museum,Agartala,Tripura,History,2010,23.8315,91.2820
Maharashtra Sculpture Museum,Nagpur,Maharashtra,Art,2012,21.1458,79.0882
Andhra Pradesh Temple Art Museum,Visakhapatnam,Andhra Pradesh,Religious Art,2013,17.6868,83.2185
Uttarakhand Himalayan Culture Museum,Nainital,Uttarakhand,Cultural,2015,29.3919,79.4542
Tamil Nadu Bronze Museum,Thanjavur,Tamil Nadu,Art,2011,10.7827,79.1320
Rajasthan Puppet Museum,Udaipur,Rajasthan,Folk Art,2009,24.5713,73.6693
Kerala Boat Museum,Kollam,Kerala,Maritime,2014,8.8932,76.6141
Assam Tea Heritage Museum,Jorhat,Assam,Agriculture,2016,26.7504,94.2031
Manipur Tribal Dance Museum,Imphal,Manipur,Ethnographic,2007,24.8170,93.9368
Nagaland Bamboo Art Museum,Wokha,Nagaland,Crafts,2010,26.1062,94.2968
West Bengal Colonial History Museum,Kolkata,West Bengal,History,2008,22.5726,88.3639
Goa Shipwreck Archaeology Museum,Panjim,Goa,Archaeology,2014,15.4909,73.8278
Chhattisgarh Handicraft Museum,Bilaspur,Chhattisgarh,Crafts,2011,22.0798,82.1391
Madhya Pradesh War Museum,Indore,Madhya Pradesh,Military,2013,22.7196,75.8577
Bihar Folk Art Museum,Muzaffarpur,Bihar,Folk Art,2009,26.1209,85.3905
Punjab Sikh Heritage Museum,Amritsar,Punjab,Religious,2010,31.6340,74.8723
Tripura Tribal Handloom Museum,Agartala,Tripura,Textile,2012,23.8315,91.2820
Tamil Nadu Temple Sculpture Museum,Madurai,Tamil Nadu,Religious Art,2007,9.9252,78.1198
Uttarakhand Natural History Museum,Dehradun,Uttarakhand,Natural History,2011,30.3165,78.0322
Karnataka Mysore Paintings Museum,Mysore,Karnataka,Art,2014,12.2958,76.6394
Rajasthan Desert Culture Museum,Jaisalmer,Rajasthan,Cultural,2010,26.9157,70.9080
Kerala Elephant Heritage Museum,Thrissur,Kerala,Cultural,2015,10.5276,76.2144
Mizoram Traditional Dress Museum,Aizawl,Mizoram,Ethnographic,2013,23.7271,92.7176
Andhra Pradesh Colonial History Museum,Vijayawada,Andhra Pradesh,History,2009,16.5062,80.6480
Assam Tribal Music Museum,Dispur,Assam,Ethnographic,2012,26.1270,91.8082
Nagaland War History Museum,Dimapur,Nagaland,Military,2014,25.8967,93.7296
Bihar Buddhist Heritage Museum,Patna,Bihar,Religious,2007,25.6159,85.1414
Punjab Rural Arts Museum,Fatehgarh Sahib,Punjab,Folk Art,2010,30.6471,76.4044
Goa Church Art Museum,Panjim,Goa,Religious Art,2015,15.4909,73.8278
Madhya Pradesh Tribal Jewellery Museum,Bhopal,Madhya Pradesh,Crafts,2011,23.2599,77.4126
Tripura Royal Armory Museum,Agartala,Tripura,Military,2013,23.8315,91.2820
Uttarakhand Himalayan Natural History Museum,Rishikesh,Uttarakhand,Natural History,2014,30.0869,78.2676
Kerala Kathakali Museum,Kochi,Kerala,Cultural,2008,9.9312,76.2673
Karnataka Mysore Royal Art Museum,Mysore,Karnataka,Art,2013,12.2958,76.6394
Tamil Nadu Bronze Sculpture Museum,Chennai,Tamil Nadu,Art,2011,13.0827,80.2707
Rajasthan Camel Heritage Museum,Bikaner,Rajasthan,Cultural,2009,28.0143,73.3119
West Bengal Tribal Art Museum,Darjeeling,West Bengal,Ethnographic,2010,27.0360,88.2627
Assam Tea Plantation Museum,Jorhat,Assam,Agriculture,2012,26.7504,94.2031
Nagaland Cultural History Museum,Kohima,Nagaland,History,2015,25.6747,94.1102
Goa Portuguese Heritage Museum,Panjim,Goa,History,2013,15.4909,73.8278
Chhattisgarh Folk Arts Museum,Raipur,Chhattisgarh,Folk Art,2010,21.2514,81.6296
Madhya Pradesh Tribal Handicraft Museum,Indore,Madhya Pradesh,Crafts,2011,22.7196,75.8577
Bihar Ancient Coins Museum,Patna,Bihar,Numismatics,2009,25.6159,85.1414
Punjab Traditional Weapons Museum,Amritsar,Punjab,Military,2012,31.6340,74.8723
Tripura Handloom Museum,Agartala,Tripura,Textile,2014,23.8315,91.2820
Uttarakhand Forest Heritage Museum,Dehradun,Uttarakhand,Natural History,2013,30.3165,78.0322
Kerala Traditional Dance Museum,Thiruvananthapuram,Kerala,Cultural,2015,8.5241,76.9366
Karnataka Folk Music Museum,Mysore,Karnataka,Ethnographic,2011,12.2958,76.6394
Tamil Nadu Temple Art Museum,Trichy,Tamil Nadu,Religious Art,2012,10.7905,78.7047
Rajasthan Royal Armoury Museum,Jaipur,Rajasthan,Military,2014,26.9124,75.7873
West Bengal Handicrafts Museum,Kolkata,West Bengal,Crafts,2013,22.5726,88.3639
Assam Natural History Museum,Guwahati,Assam,Natural History,2011,26.1445,91.7362
Nagaland Tribal Costume Museum,Mon,Nagaland,Ethnographic,2010,26.8350,94.3365
Goa Maritime History Museum,Panaji,Goa,Maritime,2014,15.4909,73.8278
Chhattisgarh Tribal Jewellery Museum,Raipur,Chhattisgarh,Crafts,2013,21.2514,81.6296
Madhya Pradesh Ancient Manuscripts Museum,Bhopal,Madhya Pradesh,History,2012,23.2599,77.4126
Bihar Folk Music Museum,Patna,Bihar,Ethnographic,2010,25.6159,85.1414
Punjab Rural Heritage Museum,Fazilka,Punjab,Cultural,2011,30.4030,74.2544
Tripura Dance Heritage Museum,Agartala,Tripura,Cultural,2014,23.8315,91.2820
Uttarakhand Mountain Art Museum,Nainital,Uttarakhand,Art,2013,29.3919,79.4542
Kerala Boat Culture Museum,Kochi,Kerala,Maritime,2012,9.9312,76.2673
Karnataka Tribal Pottery Museum,Mysore,Karnataka,Crafts,2010,12.2958,76.6394
Tamil Nadu Colonial History Museum,Chennai,Tamil Nadu,History,2011,13.0827,80.2707
Rajasthan Folk Dance Museum,Udaipur,Rajasthan,Cultural,2013,24.5713,73.6659
West Bengal War Memorial Museum,Kolkata,West Bengal,Military,2015,22.5726,88.3639
Assam Silk Weaving Museum,Jorhat,Assam,Crafts,2012,26.7504,94.2031
Nagaland Bamboo Crafts Museum,Dimapur,Nagaland,Crafts,2013,25.8967,93.7296
Goa Spice Heritage Museum,Panjim,Goa,Agriculture,2010,15.4909,73.8278
Chhattisgarh Handloom Museum,Bilaspur,Chhattisgarh,Textile,2011,22.0798,82.1391
Madhya Pradesh Tribal Mask Museum,Indore,Madhya Pradesh,Ethnographic,2014,22.7196,75.8577
Bihar Buddhist Art Museum,Patna,Bihar,Religious Art,2012,25.6159,85.1414
Punjab Folk Costume Museum,Patiala,Punjab,Ethnographic,2010,30.3398,76.3869
Tripura Tribal Jewellery Museum,Agartala,Tripura,Crafts,2011,23.8315,91.2820
Uttarakhand Natural Resources Museum,Dehradun,Uttarakhand,Science,2013,30.3165,78.0322
Kerala Traditional Craft Museum,Thrissur,Kerala,Crafts,2015,10.5276,76.2144
Karnataka Mysore Pottery Museum,Mysore,Karnataka,Crafts,2012,12.2958,76.6394
Tamil Nadu Bronze Art Museum,Chennai,Tamil Nadu,Art,2010,13.0827,80.2707
Rajasthan Desert Culture Museum,Jaisalmer,Rajasthan,Cultural,2013,26.9157,70.9080
West Bengal Folk Music Museum,Darjeeling,West Bengal,Ethnographic,2014,27.0360,88.2627
Assam Tea Heritage Museum,Guwahati,Assam,Agriculture,2011,26.1445,91.7362
Nagaland War History Museum,Kohima,Nagaland,Military,2015,25.6747,94.1102
Goa Archaeological Museum,Panjim,Goa,Archaeology,2013,15.4909,73.8278
Chhattisgarh Tribal Art Museum,Raipur,Chhattisgarh,Ethnographic,2010,21.2514,81.6296
Madhya Pradesh War Museum,Bhopal,Madhya Pradesh,Military,2012,23.2599,77.4126
Bihar Folk Art Museum,Patna,Bihar,Folk Art,2014,25.6159,85.1414
Punjab Sikh Heritage Museum,Amritsar,Punjab,Religious,2011,31.6340,74.8723
Tripura Tribal Handloom Museum,Agartala,Tripura,Textile,2013,23.8315,91.2820
Tamil Nadu Temple Sculpture Museum,Madurai,Tamil Nadu,Religious Art,2010,9.9252,78.1198
Uttarakhand Natural History Museum,Dehradun,Uttarakhand,Natural History,2012,30.3165,78.0322
Karnataka Mysore Paintings Museum,Mysore,Karnataka,Art,2014,12.2958,76.6394
Punjab Folk Heritage Museum,Patiala,Punjab,Cultural,2016,30.3398,76.3869
Maharashtra War Memorial Museum,Pune,Maharashtra,Military,2018,18.5204,73.8567
Uttar Pradesh Freedom Struggle Museum,Lucknow,Uttar Pradesh,History,2014,26.8467,80.9462
Himachal Pradesh Himalayan Wildlife Museum,Shimla,Himachal Pradesh,Natural History,2013,31.1048,77.1734
Andhra Pradesh Buddhist Art Museum,Amaravati,Andhra Pradesh,Religious Art,2017,16.5402,80.5177
Tamil Nadu Folk Art Museum,Salem,Tamil Nadu,Folk Art,2015,11.6643,78.1460
Kerala Maritime History Museum,Alappuzha,Kerala,Maritime,2019,9.4981,76.3388
Rajasthan Folk Pottery Museum,Ajmer,Rajasthan,Crafts,2016,26.4499,74.6399
West Bengal Colonial Art Museum,Siliguri,West Bengal,Art,2017,26.7283,88.3953
Madhya Pradesh Tribal Dance Museum,Jabalpur,Madhya Pradesh,Cultural,2018,23.1815,79.9864
Odisha Rock Art Museum,Baripada,Odisha,Archaeology,2015,21.9332,86.7220
Chhattisgarh War Heroes Museum,Dhamtari,Chhattisgarh,Military,2017,20.7120,81.5494
Goa Contemporary Art Museum,Mapusa,Goa,Modern Art,2018,15.5913,73.8130
Nagaland Traditional Tattoo Museum,Mokokchung,Nagaland,Ethnographic,2019,26.3246,94.5187
Assam Ancient Manuscripts Museum,Tezpur,Assam,History,2014,26.6338,92.8000
Uttar Pradesh Temple Architecture Museum,Varanasi,Uttar Pradesh,Religious Art,2013,25.3176,82.9739
Karnataka Folk Literature Museum,Hubli,Karnataka,Cultural,2016,15.3647,75.1240
Bihar Ancient Coins Museum,Gaya,Bihar,Numismatics,2017,24.7955,84.9994
Haryana Rural Arts Museum,Panipat,Haryana,Folk Art,2018,29.3909,76.9635
Tripura Traditional Music Museum,Udaipur,Tripura,Ethnographic,2016,23.5330,91.4825
Mizoram Tribal Agriculture Museum,Lunglei,Mizoram,Agriculture,2015,22.8800,92.7332
Tamil Nadu Colonial Naval Museum,Chennai,Tamil Nadu,Maritime,2019,13.0827,80.2707
Kerala Boat Building Museum,Kozhikode,Kerala,Maritime,2017,11.2588,75.7804
Rajasthan Royal Textiles Museum,Jaipur,Rajasthan,Textile,2016,26.9124,75.7873
West Bengal Handloom Museum,Shantiniketan,West Bengal,Textile,2018,23.6771,87.6836
Madhya Pradesh Tribal Pottery Museum,Satna,Madhya Pradesh,Crafts,2019,24.6005,80.8322
Odisha Folk Dance Museum,Cuttack,Odisha,Cultural,2014,20.4625,85.8828
Punjab Sikh Regiment Museum,Ferozepur,Punjab,Military,2015,30.9255,74.6134
Goa Portuguese Colonial Museum,Ponda,Goa,History,2016,15.4024,74.0152
Assam Tea Garden Museum,Tinsukia,Assam,Agriculture,2017,27.4922,95.3537
Nagaland Bamboo Crafts Museum,Wokha,Nagaland,Crafts,2018,26.1024,94.2657
Chhattisgarh Mineral Museum,Bilaspur,Chhattisgarh,Science,2019,22.0798,82.1391
Uttar Pradesh Textile Heritage Museum,Kanpur,Uttar Pradesh,Textile,2016,26.4499,80.3319
Karnataka Mysore Royal Arms Museum,Mysore,Karnataka,Military,2017,12.2958,76.6394
Tamil Nadu Bronze Casting Museum,Tirunelveli,Tamil Nadu,Art,2018,8.7139,77.7567
Kerala Spice Trade Museum,Kochi,Kerala,Agriculture,2019,9.9312,76.2673
Rajasthan Desert Wildlife Museum,Bikaner,Rajasthan,Natural History,2016,28.0229,73.3119
West Bengal Colonial Military Museum,Kolkata,West Bengal,Military,2017,22.5726,88.3639
Madhya Pradesh Tribal Jewellery Museum,Rewa,Madhya Pradesh,Crafts,2018,24.5300,81.2991
Odisha Ancient Temples Museum,Bhubaneswar,Odisha,Archaeology,2016,20.2961,85.8245
Haryana Textile Museum,Hisar,Haryana,Textile,2015,29.1492,75.7217
Manipur Handloom Museum,Imphal,Manipur,Crafts,2016,24.8170,93.9368
Jharkhand Tribal Art Museum,Ranchi,Jharkhand,Cultural,2017,23.3441,85.3096
Sikkim Buddhist Art Museum,Gangtok,Sikkim,Religious Art,2018,27.3314,88.6138
Uttarakhand Himalayan Culture Museum,Dehradun,Uttarakhand,Cultural,2019,30.3165,78.0322
Delhi Archaeological Museum,New Delhi,Delhi,Archaeology,2014,28.6139,77.2090
Bihar Ancient Manuscripts Museum,Patna,Bihar,History,2015,25.6159,85.1414
Andaman Nicobar Tribal Museum,Port Blair,Andaman & Nicobar,Cultural,2016,11.6234,92.7265
Lakshadweep Maritime Museum,Kavaratti,Lakshadweep,Maritime,2017,10.5667,72.6369
Chandigarh Modern Art Museum,Chandigarh,Chandigarh,Modern Art,2018,30.7333,76.7794
Jharkhand War Heroes Museum,Jamshedpur,Jharkhand,Military,2019,22.8046,86.2029
Tripura Ancient Sculpture Museum,Agartala,Tripura,Archaeology,2014,23.8315,91.2820
Mizoram Traditional Textile Museum,Aizawl,Mizoram,Textile,2015,22.5769,92.7176
Nagaland Warrior History Museum,Mon,Nagaland,Military,2016,26.8350,94.3365
Punjab Rural Crafts Museum,Fatehgarh Sahib,Punjab,Crafts,2017,30.6472,76.3964
Goa Fort History Museum,Old Goa,Goa,History,2018,15.5020,73.9120
Himachal Pradesh Cultural Heritage Museum,Manali,Himachal Pradesh,Cultural,2019,32.2396,77.1887
Kerala Temple Art Museum,Kollam,Kerala,Religious Art,2014,8.8932,76.6141
Madhya Pradesh Folk Music Museum,Indore,Madhya Pradesh,Ethnographic,2015,22.7196,75.8577
Rajasthan Royal Paintings Museum,Kota,Rajasthan,Art,2016,25.2138,75.8648
West Bengal Colonial Trade Museum,Howrah,West Bengal,History,2017,22.5958,88.2636
Odisha Tribal Pottery Museum,Sundargarh,Odisha,Crafts,2018,22.1215,84.0086  
Chhattisgarh Ancient Artifacts Museum,Raipur,Chhattisgarh,Archaeology,2019,21.2514,81.6296  
Tamil Nadu Temple Sculpture Museum,Chidambaram,Tamil Nadu,Religious Art,2014,11.4056,79.7002  
Karnataka Folk Instruments Museum,Mangalore,Karnataka,Cultural,2015,12.9141,74.8560  
Haryana Folk Heritage Museum,Rohtak,Haryana,Cultural,2016,28.9039,76.5666  
Manipur Royal Museum,Imphal,Manipur,History,2015,24.8170,93.9368  
Jharkhand Rock Art Museum,Palamu,Jharkhand,Archaeology,2017,23.8906,84.3644  
Sikkim Traditional Crafts Museum,Gangtok,Sikkim,Crafts,2018,27.3389,88.6065  
Uttarakhand Garhwal Folk Museum,Pauri Garhwal,Uttarakhand,Folk Art,2019,30.1588,78.7860  
Delhi Textile History Museum,New Delhi,Delhi,Textile,2014,28.6139,77.2090  
Bihar Archaeological Museum,Bodh Gaya,Bihar,Archaeology,2015,24.6950,84.9911  
Andaman Nicobar Maritime Museum,Port Blair,Andaman & Nicobar,Maritime,2016,11.6234,92.7265  
Lakshadweep Island Culture Museum,Kavaratti,Lakshadweep,Cultural,2017,10.5667,72.6369  
Chandigarh Museum of Modern Sculpture,Chandigarh,Chandigarh,Modern Art,2018,30.7333,76.7794  
Jharkhand Tribal Art Gallery,Ranchi,Jharkhand,Ethnographic,2019,23.3441,85.3096  
Tripura Handloom Museum,Udaipur,Tripura,Textile,2014,23.5330,91.4825  
Mizoram Ethnographic Museum,Aizawl,Mizoram,Cultural,2015,23.7271,92.7176  
Nagaland Warrior Art Museum,Kohima,Nagaland,Military Art,2016,25.6747,94.1102  
Punjab Rural Life Museum,Fatehgarh Sahib,Punjab,Cultural,2017,30.6472,76.3964  
Goa Colonial History Museum,Panjim,Goa,History,2018,15.4909,73.8278  
Himachal Pradesh Snow Heritage Museum,Manali,Himachal Pradesh,Natural History,2019,32.2396,77.1887  
Kerala Snake Boat Museum,Kottayam,Kerala,Maritime,2014,9.5916,76.5220  
Madhya Pradesh Tribal Festival Museum,Jabalpur,Madhya Pradesh,Cultural,2015,23.1815,79.9864  
Rajasthan Textile Heritage Museum,Ajmer,Rajasthan,Textile,2016,26.4499,74.6399  
West Bengal Folk Literature Museum,Shantiniketan,West Bengal,Cultural,2017,23.6771,87.6836  
Odisha Ancient Coin Museum,Bhubaneswar,Odisha,Numismatics,2018,20.2961,85.8245  
Chhattisgarh Cultural Heritage Museum,Dhamtari,Chhattisgarh,Cultural,2019,20.7120,81.5494  
Tamil Nadu Temple Music Museum,Thanjavur,Tamil Nadu,Music,2014,10.7870,79.1378  
Karnataka Folk Dance Heritage Museum,Hubli,Karnataka,Cultural,2015,15.3647,75.1240  
Uttar Pradesh Freedom Struggle Artifacts Museum,Lucknow,UP,History,2016,26.8467,80.9462  
Delhi Botanical History Museum,New Delhi,Delhi,Science,2017,28.6139,77.2090  
Bihar Folk Art Museum,Muzaffarpur,Bihar,Folk Art,2018,26.1209,85.3905  
Andaman Nicobar Indigenous Culture Museum,Port Blair,Andaman & Nicobar,Cultural,2019,11.6234,92.7265  
Lakshadweep Marine Life Museum,Kavaratti,Lakshadweep,Natural History,2014,10.5667,72.6369  
Chandigarh Heritage Textile Museum,Chandigarh,Chandigarh,Textile,2015,30.7333,76.7794  
Jharkhand Ancient Sculptures Museum,Ranchi,Jharkhand,Archaeology,2016,23.3441,85.3096  
Tripura Tribal Culture Museum,Agartala,Tripura,Cultural,2017,23.8315,91.2820  
Mizoram Bamboo Heritage Museum,Lunglei,Mizoram,Crafts,2018,22.8800,92.7332  
Nagaland Traditional Weaponry Museum,Dimapur,Nagaland,Military,2019,25.8967,93.7296  
Punjab Sikh Artifacts Museum,Amritsar,Punjab,Religious Art,2014,31.6340,74.8723  
Goa Maritime Heritage Museum,Mapusa,Goa,Maritime,2015,15.5913,73.8130  
Himachal Pradesh Mountain Culture Museum,Shimla,Himachal Pradesh,Cultural,2016,31.1048,77.1734  
Kerala Spices and Trade Museum,Kochi,Kerala,Agriculture,2017,9.9312,76.2673  
Madhya Pradesh Tribal Jewelry Heritage Museum,Rewa,MP,Crafts,2018,24.5300,81.2991  
Rajasthan Desert Folk Dance Museum,Bikaner,Rajasthan,Cultural,2019,28.0229,73.3119  
West Bengal Colonial Naval Museum,Kolkata,West Bengal,Military,2014,22.5726,88.3639  
Odisha Tribal Music Heritage Museum,Cuttack,Odisha,Ethnographic,2015,20.4625,85.8828  
Chhattisgarh War History Museum,Rajnandgaon,Chhattisgarh,Military,2016,21.0986,81.0214
Tamil Nadu Bronze Artifacts Heritage Museum,Coimbatore,Tamil Nadu,Art,2017,11.0168,76.9558
Karnataka Royal Heritage Gallery,Mysore,Karnataka,History,2018,12.2958,76.6394
Uttar Pradesh Folk Artifacts Museum,Varanasi,Uttar Pradesh,Folk Art,2019,25.3176,82.9739
Delhi Contemporary Sculpture Museum,New Delhi,Delhi,Modern Art,2014,28.6139,77.2090
Bihar Temple Sculpture Museum,Gaya,Bihar,Religious Art,2015,24.7955,84.9994
Andaman Nicobar Nature Conservation Museum,Port Blair,Andaman & Nicobar,Natural History,2016,11.6234,92.7265
Lakshadweep Coral Reef Museum,Kavaratti,Lakshadweep,Natural History,2017,10.5667,72.6369
Chandigarh Military Heritage Museum,Chandigarh,Chandigarh,Military,2018,30.7333,76.7794
Jharkhand Folk Dance Heritage Museum,Jamshedpur,Jharkhand,Cultural,2019,22.8046,86.2029
Tripura Natural Heritage Museum,Agartala,Tripura,Natural History,2014,23.8315,91.2820
Mizoram Tribal Textile Museum,Aizawl,Mizoram,Textile,2015,23.7271,92.7176
Nagaland Bamboo Crafts Heritage Museum,Wokha,Nagaland,Crafts,2016,26.1024,94.2657
Punjab Rural Textile Heritage Museum,Ludhiana,Punjab,Textile,2017,30.9010,75.8573
Goa Portuguese Heritage Museum,Panjim,Goa,History,2018,15.4909,73.8278
Himachal Pradesh Tribal Festival Museum,Kullu,Himachal Pradesh,Cultural,2019,31.9403,77.1131
Kerala Boat Heritage Museum,Alappuzha,Kerala,Maritime,2014,9.4981,76.3388
Madhya Pradesh War Heroes Heritage Museum,Bhopal,Madhya Pradesh,Military,2015,23.2599,77.4126
Rajasthan Desert Heritage Museum,Jaisalmer,Rajasthan,Cultural,2016,26.9157,70.9080
West Bengal Folk Artifacts Museum,Siliguri,West Bengal,Folk Art,2017,26.7271,88.3953
Odisha Ancient History Museum,Bhubaneswar,Odisha,Archaeology,2018,20.2961,85.8245
Chhattisgarh Tribal Dance Heritage Museum,Jagdalpur,Chhattisgarh,Cultural,2019,19.0702,82.0362
Tamil Nadu Temple Festival Museum,Madurai,Tamil Nadu,Cultural,2014,9.9252,78.1198
Karnataka Folk Heritage Museum,Bangalore,Karnataka,Folk Art,2015,12.9716,77.5946
Uttar Pradesh Freedom Movement Museum,Kanpur,UP,History,2016,26.4499,80.3319
Delhi Archaeological Heritage Museum,New Delhi,Delhi,Archaeology,2017,28.6139,77.2090
Bihar Folk Costume Heritage Museum,Patna,Bihar,Ethnographic,2018,25.6159,85.1414
Andaman Nicobar Natural Heritage Museum,Port Blair,Andaman & Nicobar,Natural History,2019,11.6234,92.7265
Lakshadweep Coral Heritage Museum,Kavaratti,Lakshadweep,Natural History,2014,10.5667,72.6369
Chandigarh Textile Heritage Museum,Chandigarh,Chandigarh,Textile,2015,30.7333,76.7794
Jharkhand Tribal Music Heritage Museum,Ranchi,Jharkhand,Cultural,2016,23.3441,85.3096
Tripura War Memorial Heritage Museum,Agartala,Tripura,Military,2017,23.8315,91.2820
Mizoram Bamboo Crafts Heritage Museum,Aizawl,Mizoram,Crafts,2018,23.7271,92.7176
Nagaland Handloom Heritage Museum,Wokha,Nagaland,Textile,2019,26.1024,94.2657
Punjab Sikh Heritage Museum,Amritsar,Punjab,History,2014,31.6340,74.8723
Goa Maritime Trade Heritage Museum,Panaji,Goa,Maritime,2015,15.4909,73.8278
Himachal Pradesh Tribal Heritage Museum,Shimla,Himachal Pradesh,Cultural,2016,31.1048,77.1734
Kerala Boat Building Heritage Museum,Kochi,Kerala,Maritime,2017,9.9312,76.2673
Madhya Pradesh War Memorial Heritage Museum,Satna,Madhya Pradesh,Military,2018,24.6005,80.8322
Rajasthan Desert Culture Heritage Museum,Barmer,Rajasthan,Cultural,2019,25.7534,71.4006
West Bengal Folk Painting Heritage Museum,Bardhaman,West Bengal,Art,2014,23.2324,87.8616
Odisha Temple Architecture Heritage Museum,Bhubaneswar,Odisha,Religious Art,2015,20.2961,85.8245
Chhattisgarh Tribal Dance Heritage Museum,Jagdalpur,Chhattisgarh,Cultural,2016,19.0702,82.0362
Arunachal Pradesh State Museum,Itanagar,Arunachal Pradesh,Cultural,1976,27.0844,93.6053
Assam State Museum,Guwahati,Assam,History,1940,26.1445,91.7362
Bihar Museum,Patna,Bihar,History,2015,25.6159,85.1414
Chhattisgarh State Museum,Raipur,Chhattisgarh,Art & Culture,1970,21.2514,81.6296
Goa State Museum,Panjim,Goa,History,1996,15.4909,73.8278
Gujarat Science City,Ahmedabad,Gujarat,Science,2002,23.0305,72.6167
Haryana State Museum,Panchkula,Haryana,History,1982,30.6944,76.8606
Himachal State Museum,Shimla,Himachal Pradesh,Culture,1974,31.1048,77.1734
Jammu & Kashmir State Museum,Jammu,Jammu & Kashmir,Cultural,1983,32.7266,74.8570
Jharkhand State Museum,Ranchi,Jharkhand,History,1974,23.3441,85.3096
Karnataka Government Museum,Mysore,Karnataka,Art & Culture,1889,12.2958,76.6394
Kerala State Museum,Thiruvananthapuram,Kerala,Art & History,1977,8.5241,76.9366
Madhya Pradesh Tribal Museum,Bhopal,Madhya Pradesh,Cultural,2007,23.2599,77.4126
Maharashtra State Museum,Mumbai,Maharashtra,Art & History,1920,18.9317,72.8330
Manipur State Museum,Imphal,Manipur,Cultural,1969,24.8170,93.9368
Meghalaya State Museum,Shillong,Meghalaya,Cultural,1974,25.5788,91.8933
Mizoram State Museum,Aizawl,Mizoram,History,1977,23.7271,92.7176
Nagaland State Museum,Kohima,Nagaland,Cultural,1970,25.6747,94.1102
Odisha State Museum,Bhubaneswar,Odisha,History,1932,20.2961,85.8245
Punjab State Museum,Patiala,Punjab,Art & Culture,1967,30.3398,76.3869
Rajasthan State Museum,Jaipur,Rajasthan,History,1959,26.9124,75.7873
Sikkim State Museum,Gangtok,Sikkim,History,1979,27.3314,88.6138
Tamil Nadu Archaeological Museum,Chennai,Tamil Nadu,Archaeology,1916,13.0827,80.2707
Telangana State Museum,Hyderabad,Telangana,History,1930,17.3850,78.4867
Tripura State Museum,Agartala,Tripura,Cultural,1976,23.8315,91.2820
Uttar Pradesh State Museum,Lucknow,Uttar Pradesh,History,1963,26.8467,80.9462
Uttarakhand State Museum,Dehradun,Uttarakhand,Cultural,1976,30.3165,78.0322
West Bengal State Museum,Kolkata,West Bengal,History,1814,22.5726,88.3639
National Handicrafts & Handlooms Museum (Crafts Museum),New Delhi,Delhi,Handicrafts,1976,28.6139,77.2090
Jawahar Kala Kendra Museum,Jaipur,Rajasthan,Art & Culture,1994,26.9196,75.8090
Museum of Natural History,Chennai,Tamil Nadu,Natural History,1956,13.0827,80.2707
Indira Gandhi Rashtriya Manav Sangrahalaya (Museum of Mankind),Bhopal,Madhya Pradesh,Anthropology,1974,23.2599,77.4126
Rail Museum,New Delhi,Delhi,Transport,1977,28.6139,77.2090
Indian Air Force Museum,New Delhi,Delhi,Military,1975,28.6139,77.2090
Museum of Folk and Tribal Art,New Delhi,Delhi,Ethnography,1980,28.6139,77.2090
National Gallery of Modern Art, Mumbai,Maharashtra,Modern Art,1996,18.9317,72.8330
Birla Industrial & Technological Museum,Kolkata,West Bengal,Science,1959,22.5726,88.3639
Saraswati Mandir Museum,Jaipur,Rajasthan,History,1987,26.9124,75.7873
Science City,Ahmedabad,Gujarat,Science,1999,23.0305,72.6167
Calico Museum of Textiles,Ahmedabad,Gujarat,Textile,1949,23.0225,72.5714
Rajasthan Oriental Research Institute,Jaipur,Rajasthan,Research,1918,26.9124,75.7873
Indian Museum (Asutosh Museum of Indian Art),Kolkata,West Bengal,Art,1814,22.5726,88.3639
Mysore Sand Sculpture Museum,Mysore,Karnataka,Art,2015,12.2958,76.6394
Salar Jung Museum (new wing),Hyderabad,Telangana,Art & History,2010,17.3850,78.4867
National Rail Museum,New Delhi,Delhi,Transport,1977,28.6139,77.2090
Dr. Bhau Daji Lad Museum,Mumbai,Maharashtra,History,1855,18.9574,72.8236
Prince of Wales Museum (CSMVS),Mumbai,Maharashtra,Art & Culture,1922,18.9320,72.8360
Museum of Manipur Culture,Imphal,Manipur,Cultural,1974,24.8170,93.9368
Museum of Goa,Panaji,Goa,Contemporary Art,2015,15.4909,73.8278
Dharohar Museum,Rohtak,Haryana,History,2010,28.8955,76.6066
Shilpgram Museum,Udaipur,Rajasthan,Crafts,1987,24.5713,73.6659
Museum of Tibetan Culture,Darjeeling,West Bengal,Cultural,1989,27.0360,88.2627
Alipore Zoological Gardens Museum,Kolkata,West Bengal,Natural History,1876,22.5335,88.3180
Bengal Museum of Photography,Kolkata,West Bengal,Photography,2021,22.5726,88.3639
Victoria Memorial Hall,Kolkata,West Bengal,History,1921,22.5448,88.3426
Sawai Man Singh Museum,Jaipur,Rajasthan,Art & History,1996,26.9204,75.8205
Ashoka Pillar Museum,Sarnath,Uttar Pradesh,Archaeology,1955,25.3975,83.0094
National Handloom Museum,New Delhi,Delhi,Crafts,1980,28.6139,77.2090
Folk Art Museum,Kolkata,West Bengal,Folk Art,2000,22.5726,88.3639
Chhatrapati Shivaji Maharaj Museum,Panaji,Goa,History,2011,15.4909,73.8278
Museum of Puppet Arts,Chennai,Tamil Nadu,Folk Art,1983,13.0827,80.2707
Science Museum,Bangalore,Karnataka,Science,1992,12.9716,77.5946
National War Museum,Chennai,Tamil Nadu,Military,2002,13.0827,80.2707
Museum of Indian Cinema,Mumbai,Maharashtra,Film,2013,18.9317,72.8330
Botanical Survey of India Museum,Dehradun,Uttarakhand,Natural History,1954,30.3165,78.0322
Museum of Archaeology,Patna,Bihar,Archaeology,1982,25.5941,85.1376
Museum of Tribal Art,Ahmedabad,Gujarat,Cultural,2001,23.0225,72.5714
Museum of Contemporary Art,Delhi,Delhi,Modern Art,2005,28.6139,77.2090
Museum of Railways,Kolkata,West Bengal,Transport,1977,22.5726,88.3639
Museum of Indian Railways,New Delhi,Delhi,Transport,1977,28.6139,77.2090
Museum of Maritime Heritage,Mumbai,Maharashtra,Maritime,1983,18.9317,72.8330
Museum of Folk Music,Patna,Bihar,Cultural,1995,25.5941,85.1376
Museum of Traditional Textiles,Ahmedabad,Gujarat,Textile,1989,23.0225,72.5714
Museum of Natural Sciences,Chennai,Tamil Nadu,Science,1956,13.0827,80.2707
Museum of Fine Arts,Kolkata,West Bengal,Art,1975,22.5726,88.3639
Museum of Indian Art & Culture,New Delhi,Delhi,Art & Culture,1987,28.6139,77.2090
Museum of Asian Art,Delhi,Delhi,Art,1989,28.6139,77.2090
Museum of Indian History,New Delhi,Delhi,History,2001,28.6139,77.2090
Museum of Folk Traditions,Jaipur,Rajasthan,Cultural,1990,26.9124,75.7873
Museum of Natural History,Shillong,Meghalaya,Natural History,1960,25.5788,91.8933
Museum of Tribal Heritage,Imphal,Manipur,Cultural,1985,24.8170,93.9368
Museum of Ancient Art,Bhubaneswar,Odisha,Archaeology,1973,20.2961,85.8245
Museum of Indian Crafts,Ahmedabad,Gujarat,Handicrafts,2005,23.0225,72.5714
Museum of Textile Arts,Surat,Gujarat,Textile,1993,21.1702,72.8311
Museum of Traditional Folk Arts,Patna,Bihar,Folk Art,2002,25.5941,85.1376
Museum of Art & Crafts,Delhi,Delhi,Art & Crafts,1980,28.6139,77.2090
Museum of Natural Wonders,Mysore,Karnataka,Natural History,1984,12.2958,76.6394
Museum of Tribal Paintings,Raipur,Chhattisgarh,Cultural,1998,21.2514,81.6296
Museum of Contemporary Sculptures,Mumbai,Maharashtra,Modern Art,1997,18.9317,72.8330
Museum of Indian Sculpture,New Delhi,Delhi,Art,1988,28.6139,77.2090
Museum of Folk Instruments,Chennai,Tamil Nadu,Cultural,1994,13.0827,80.2707
Museum of Tribal Jewelry,Imphal,Manipur,Crafts,1986,24.8170,93.9368
Museum of Indian Dance,Delhi,Delhi,Cultural,1990,28.6139,77.2090
Museum of Maritime History,Goa,Goa,Maritime,1985,15.4909,73.8278
Museum of Folk Literature,Bhubaneswar,Odisha,Cultural,1997,20.2961,85.8245
Museum of Indian Festivals,Jaipur,Rajasthan,Cultural,1992,26.9124,75.7873
Museum of Ancient Coins,Kolkata,West Bengal,Numismatics,1993,22.5726,88.3639
Museum of Indian Pottery,Ahmedabad,Gujarat,Crafts,1987,23.0225,72.5714
Museum of Tribal Masks,Imphal,Manipur,Cultural,1984,24.8170,93.9368
Museum of Indian Textiles,New Delhi,Delhi,Textile,1991,28.6139,77.2090
Museum of Indian Metalwork,Mumbai,Maharashtra,Art & Crafts,1996,18.9317,72.8330
Museum of Indian Folk Dance,Patna,Bihar,Cultural,1995,25.5941,85.1376
Museum of Indian Jewelry,Jaipur,Rajasthan,Crafts,1990,26.9124,75.7873
Museum of Indian Stone Carving,Bhubaneswar,Odisha,Art,1983,20.2961,85.8245
Museum of Indian Glasswork,Kolkata,West Bengal,Crafts,1998,22.5726,88.3639
Museum of Indian Calligraphy,Delhi,Delhi,Art,1989,28.6139,77.2090
Museum of Indian Miniature Paintings,Jaipur,Rajasthan,Art,1994,26.9124,75.7873
Museum of Tribal Agriculture,Mysore,Karnataka,Agriculture,1986,12.2958,76.6394
Museum of Indian Handicrafts,Ahmedabad,Gujarat,Handicrafts,1987,23.0225,72.5714
Museum of Indian Folk Art,Bhubaneswar,Odisha,Folk Art,1990,20.2961,85.8245
Museum of Tribal Religion,Imphal,Manipur,Religious,1982,24.8170,93.9368
Museum of Indian Ceramics,New Delhi,Delhi,Art & Crafts,1995,28.6139,77.2090
Museum of Indian Folk Theatre,Patna,Bihar,Cultural,1996,25.5941,85.1376
Museum of Tribal Textiles,Jaipur,Rajasthan,Textile,1998,26.9124,75.7873
Museum of Indian Musical Instruments,Mumbai,Maharashtra,Cultural,1993,18.9317,72.8330
Museum of Tribal Masks,Chennai,Tamil Nadu,Cultural,1985,13.0827,80.2707
Museum of Indian Pottery,Surat,Gujarat,Crafts,1997,21.1702,72.8311
Museum of Indian Tribal Art,Bhopal,Madhya Pradesh,Cultural,1994,23.2599,77.4126
Museum of Indian Folk Tales,New Delhi,Delhi,Cultural,1987,28.6139,77.2090
Museum of Indian Folk Paintings,Jaipur,Rajasthan,Folk Art,1992,26.9124,75.7873
Museum of Indian Tribal Crafts,Imphal,Manipur,Crafts,1989,24.8170,93.9368
Museum of Indian Folk Music,Mysore,Karnataka,Cultural,1991,12.2958,76.6394
Museum of Indian Textile Arts,Kolkata,West Bengal,Textile,1990,22.5726,88.3639
Akanal Archaeological Museum,Bijapur,Karnataka,Archaeology,1987,15.8242,75.7150
Amar Mahal Museum and Library,Hyderabad,Telangana,History,1970,17.3850,78.4867
Anantapur Archaeological Museum,Anantapur,Andhra Pradesh,Archaeology,1985,14.6810,77.6000
Archaeological Museum,Tirupati,Andhra Pradesh,Archaeology,1990,13.6288,79.4192
Assam State Museum,Guwahati,Assam,History,1940,26.1445,91.7362
Bhim Betka Rock Shelters Museum,Bhopal,Madhya Pradesh,Archaeology,1957,22.9216,77.6088
Buddhist Museum,Vaishali,Bihar,Religious Art,1978,25.6850,85.2179
Cauvery Archaeological Museum,Thanjavur,Tamil Nadu,Archaeology,1975,10.7867,79.1375
Central Museum,Kolkata,West Bengal,General,1814,22.5726,88.3639
Chandigarh Museum of Folk Art,Chandigarh,Chandigarh,Folk Art,1992,30.7333,76.7794
Chennai Archaeological Museum,Chennai,Tamil Nadu,Archaeology,1985,13.0827,80.2707
Chhattisgarh State Museum,Raipur,Chhattisgarh,Art & Culture,1970,21.2514,81.6296
Coorg Museum,Madikeri,Karnataka,History,1980,12.4244,75.7382
Dibrugarh Museum,Dibrugarh,Assam,History,1988,27.4728,94.9116
Dr. Bhau Daji Lad Museum,Mumbai,Maharashtra,History,1855,18.9574,72.8236
East India Company Museum,Kolkata,West Bengal,History,1962,22.5726,88.3639
Folk Art Museum,Patna,Bihar,Folk Art,1995,25.5941,85.1376
Gandhi Museum,Ahmedabad,Gujarat,History,1963,23.0225,72.5714
Gwalior Fort Museum,Gwalior,Madhya Pradesh,History,1972,26.2183,78.1828
Hampi Archaeological Museum,Hampi,Karnataka,Archaeology,1983,15.3350,76.4600
Harishchandra Research Institute Museum,Varanasi,Uttar Pradesh,History,1990,25.3176,82.9739
Hazaribagh Museum,Hazaribagh,Jharkhand,History,1984,23.9880,85.3830
Himachal State Museum,Shimla,Himachal Pradesh,Cultural,1974,31.1048,77.1734
Hyderabad Museum,Hyderabad,Telangana,History,1985,17.3850,78.4867
Indian Air Force Museum,New Delhi,Delhi,Military,1975,28.6139,77.2090
Indian Museum,Kolkata,West Bengal,General/Natural History,1814,22.5726,88.3639
Indira Gandhi Museum,Hyderabad,Telangana,History,1993,17.3850,78.4867
International Dolls Museum,New Delhi,Delhi,Toys & Dolls,1965,28.6139,77.2090
Jaisalmer Fort Museum,Jaisalmer,Rajasthan,History,1980,26.9157,70.9080
Jammu Archaeological Museum,Jammu,Jammu & Kashmir,Archaeology,1987,32.7266,74.8570
Jodhpur Fort Museum,Jodhpur,Rajasthan,History,1984,26.2389,73.0243
Karnataka Government Museum,Mysore,Karnataka,Art & Culture,1889,12.2958,76.6394
Kerala Folklore Museum,Kozhikode,Kerala,Cultural,1989,11.2588,75.7804
Khandwa Museum,Khandwa,Madhya Pradesh,History,1992,21.8333,76.3500
Kochi Maritime Museum,Kochi,Kerala,Maritime,1985,9.9312,76.2673
Kolkata Port Museum,Kolkata,West Bengal,Maritime,1980,22.5726,88.3639
Lalbagh Botanical Garden Museum,Bangalore,Karnataka,Natural History,1990,12.9507,77.5848
Lucknow State Museum,Lucknow,Uttar Pradesh,History,1863,26.8467,80.9462
Madhya Pradesh Tribal Museum,Bhopal,Madhya Pradesh,Cultural,2007,23.2599,77.4126
Maharashtra State Museum,Mumbai,Maharashtra,Art & History,1920,18.9317,72.8330
Mangalore Maritime Museum,Mangalore,Karnataka,Maritime,1988,12.9141,74.8560
Manipur State Museum,Imphal,Manipur,Cultural,1969,24.8170,93.9368
Meghalaya State Museum,Shillong,Meghalaya,Cultural,1974,25.5788,91.8933
Mizoram State Museum,Aizawl,Mizoram,History,1977,23.7271,92.7176
Museum of Goa,Panjim,Goa,Contemporary Art,2015,15.4909,73.8278
Museum of Manipur Culture,Imphal,Manipur,Cultural,1974,24.8170,93.9368
Museum of Natural History,Chennai,Tamil Nadu,Natural History,1956,13.0827,80.2707
Museum of Tribal Art,Ahmedabad,Gujarat,Cultural,2001,23.0225,72.5714
Museum of Tribal Paintings,Raipur,Chhattisgarh,Cultural,1998,21.2514,81.6296
Nagaland State Museum,Kohima,Nagaland,Cultural,1970,25.6747,94.1102
National Gallery of Modern Art,New Delhi,Delhi,Modern Art,1954,28.6139,77.2090
National Handicrafts and Handlooms Museum,New Delhi,Delhi,Handicrafts,1976,28.6139,77.2090
National Rail Museum,New Delhi,Delhi,Transport,1977,28.6139,77.2090
Nathdwara Art Museum,Nathdwara,Rajasthan,Art,1991,24.9769,73.7216
Orissa State Museum,Bhubaneswar,Odisha,History,1932,20.2961,85.8245
Patna Museum,Patna,Bihar,History,1917,25.5941,85.1376
Punjab State Museum,Patiala,Punjab,Art & Culture,1967,30.3398,76.3869
Railway Heritage Museum,Mysore,Karnataka,Transport,1999,12.2958,76.6394
Rajasthan Oriental Research Institute,Jaipur,Rajasthan,Research,1918,26.9124,75.7873
Rajasthan State Archives Museum,Jaipur,Rajasthan,History,1967,26.9124,75.7873
Rashtrapati Bhavan Museum,New Delhi,Delhi,History,1995,28.6143,77.1996
Salar Jung Museum,Hyderabad,Telangana,Art & History,1951,17.3850,78.4867
Science City,Ahmedabad,Gujarat,Science,1999,23.0305,72.6167
Sikkim State Museum,Gangtok,Sikkim,History,1979,27.3314,88.6138
Smt. Hiraben Nanavati Museum,Ahmedabad,Gujarat,Art & Culture,1986,23.0225,72.5714
State Museum of Kerala,Thiruvananthapuram,Kerala,Art & History,1977,8.5241,76.9366
Surat Textile Museum,Surat,Gujarat,Textile,1994,21.1702,72.8311
Tamil Nadu Archaeology Museum,Chennai,Tamil Nadu,Archaeology,1916,13.0827,80.2707
Telangana State Museum,Hyderabad,Telangana,History,1930,17.3850,78.4867
Tripura State Museum,Agartala,Tripura,Cultural,1976,23.8315,91.2820
Uttar Pradesh State Museum,Lucknow,Uttar Pradesh,History,1963,26.8467,80.9462
Uttarakhand State Museum,Dehradun,Uttarakhand,Cultural,1976,30.3165,78.0322
Victoria Memorial,Kolkata,West Bengal,History,1921,22.5448,88.3426
West Bengal State Museum,Kolkata,West Bengal,History,1814,22.5726,88.3639
World War II Museum,Kochi,Kerala,Military,1999,9.9312,76.2673
Zoo Museum,Kolkata,West Bengal,Natural History,1960,22.5726,88.3639
Zonal Cultural Museum,Imphal,Manipur,Cultural,1985,24.8170,93.9368
Zonal Museum of Archaeology,Bhubaneswar,Odisha,Archaeology,1990,20.2961,85.8245
Zoological Survey of India Museum,Kolkata,West Bengal,Natural History,1916,22.5726,88.3639
Adilabad Museum,Adilabad,Telangana,History,1988,19.6610,78.5373
Aizawl Heritage Museum,Aizawl,Mizoram,Cultural,1992,23.7271,92.7176
Almora Museum,Almora,Uttarakhand,Cultural,1985,29.5978,79.6570
Ambedkar Memorial Museum,Hyderabad,Telangana,History,1990,17.3850,78.4867
Amravati Museum,Amravati,Maharashtra,History,1984,20.9320,77.7794
Andhra Pradesh State Archaeology Museum,Vijayawada,Andhra Pradesh,Archaeology,1960,16.5062,80.6480
Ankleshwar Museum,Ankleshwar,Gujarat,History,1995,21.6380,73.0215
Asansol Museum,Asansol,West Bengal,History,1978,23.6850,86.9753
Balasinor Fossil Park Museum,Balasinor,Gujarat,Paleontology,2001,22.4890,72.7831
Banda Museum,Banda,Uttar Pradesh,History,1989,25.4779,80.3280
Bardhaman Museum,Bardhaman,West Bengal,History,1974,23.2324,87.8616
Baripada Museum,Baripada,Odisha,Cultural,1982,21.9286,86.7102
Barwani Museum,Barwani,Madhya Pradesh,History,1991,21.8155,74.9040
Bastar Museum,Jagdalpur,Chhattisgarh,Cultural,1993,19.0748,82.0346
Beawar Museum,Beawar,Rajasthan,History,1980,25.1207,75.2321
Belgaum Museum,Belgaum,Karnataka,History,1994,15.8497,74.4977
Bengal Art Museum,Kolkata,West Bengal,Art,1987,22.5726,88.3639
Berhampur Museum,Berhampur,Odisha,Cultural,1988,19.3126,84.7941
Bhagalpur Museum,Bhagalpur,Bihar,History,1980,25.2435,86.9846
Bharat Kala Bhavan,Varanasi,Uttar Pradesh,Art & Culture,1920,25.3214,82.9879
Bhilwara Museum,Bhilwara,Rajasthan,History,1986,25.3556,74.6369
Bhopal Regional Museum,Bhopal,Madhya Pradesh,History,1995,23.2599,77.4126
Bhusawal Museum,Bhusawal,Maharashtra,History,1983,21.0450,75.7293
Bidar Fort Museum,Bidar,Karnataka,History,1977,17.9133,77.5301
Bilaspur Museum,Bilaspur,Chhattisgarh,Cultural,1984,22.0799,82.1391
Bikaner Fort Museum,Bikaner,Rajasthan,History,1980,28.0159,73.3119
Bilaspur Archaeological Museum,Bilaspur,Chhattisgarh,Archaeology,1988,22.0799,82.1391
Bokaro Steel Museum,Bokaro,Jharkhand,Industrial,1997,23.6693,86.1511
Bongaigaon Museum,Bongaigaon,Assam,History,1991,26.4735,90.5640
Burdwan Museum,Burdwan,West Bengal,History,1975,23.2324,87.8616
Chamba State Museum,Chamba,Himachal Pradesh,Cultural,1985,32.5518,76.1397
Chandrapur Museum,Chandrapur,Maharashtra,History,1990,19.9531,79.2950
Chitradurga Fort Museum,Chitradurga,Karnataka,History,1988,14.2308,76.4020
Cuttack Museum,Cuttack,Odisha,History,1982,20.4625,85.8828
Daman Museum,Daman,Daman & Diu,History,1989,20.3974,72.8326
Darjeeling Himalayan Railway Museum,Darjeeling,West Bengal,Transport,1995,27.0360,88.2627
Davanagere Museum,Davanagere,Karnataka,History,1992,14.4644,75.9218
Deoghar Museum,Deoghar,Jharkhand,Religious,1991,24.4869,86.6913
Dhar Museum,Dhar,Madhya Pradesh,History,1994,22.5958,75.2830
Dindigul Museum,Dindigul,Tamil Nadu,History,1987,10.3626,77.9704
Durgapur Museum,Durgapur,West Bengal,History,1983,23.5204,86.2319
East Khasi Hills Museum,Shillong,Meghalaya,Cultural,1988,25.5788,91.8933
Ernakulam Museum,Ernakulam,Kerala,History,1990,9.9816,76.2999
Etawah Museum,Etawah,Uttar Pradesh,History,1986,26.7872,79.0104
Faridabad Museum,Faridabad,Haryana,History,1992,28.4089,77.3178
Fatehpur Museum,Fatehpur,Uttar Pradesh,History,1990,25.9274,80.8138
Firozabad Museum,Firozabad,Uttar Pradesh,History,1984,27.1550,78.3958
Gadchiroli Museum,Gadchiroli,Maharashtra,Tribal Art,1993,20.0984,80.0074
Gaya Museum,Gaya,Bihar,History,1987,24.7955,85.0000
Gir National Park Museum,Junagadh,Gujarat,Wildlife,1995,21.5265,70.4582
Gonda Museum,Gonda,Uttar Pradesh,History,1988,27.1338,81.9165
Gopalganj Museum,Gopalganj,Bihar,History,1986,26.4739,84.4490
Gorakhpur Museum,Gorakhpur,Uttar Pradesh,History,1985,26.7614,83.3668
Guntur Museum,Guntur,Andhra Pradesh,History,1989,16.3067,80.4365
Haldwani Museum,Haldwani,Uttarakhand,Cultural,1991,29.2170,79.5124
Haridwar Museum,Haridwar,Uttarakhand,Religious,1990,29.9457,78.1642
Hazaribagh Museum,Hazaribagh,Jharkhand,History,1984,23.9960,85.3695
Hingoli Museum,Hingoli,Maharashtra,History,1992,19.7197,77.1631
Hospet Museum,Hospet,Karnataka,Archaeology,1990,15.2694,76.3750
Howrah Museum,Howrah,West Bengal,History,1987,22.5958,88.2636
Ichalkaranji Textile Museum,Ichalkaranji,Maharashtra,Textile,1995,16.6880,74.4650
Imphal Museum,Imphal,Manipur,Cultural,1982,24.8170,93.9368
Indore Museum,Indore,Madhya Pradesh,History,1988,22.7196,75.8577
Itanagar State Museum,Itanagar,Arunachal Pradesh,Cultural,1976,27.0844,93.6053
Jabalpur Museum,Jabalpur,Madhya Pradesh,History,1989,23.1815,79.9864
Jagdalpur Museum,Jagdalpur,Chhattisgarh,Cultural,1990,19.0748,82.0346
Jaipur City Museum,Jaipur,Rajasthan,History,1993,26.9124,75.7873
Jalandhar Museum,Jalandhar,Punjab,History,1985,31.3260,75.5762
Jammu Fort Museum,Jammu,Jammu & Kashmir,History,1988,32.7266,74.8570
Jamnagar Museum,Jamnagar,Gujarat,History,1986,22.4707,70.0577
Jamshedpur Museum,Jamshedpur,Jharkhand,Industrial,1989,22.8046,86.2029
Jhansi Fort Museum,Jhansi,UP,History,1991,25.4489,78.5684
Jodhpur Museum,Jodhpur,Rajasthan,History,1983,26.2389,73.0243
Kalahandi Museum,Bhawanipatna,Odisha,Cultural,1987,20.2479,83.1698
Kalimpong Museum,Kalimpong,West Bengal,Cultural,1990,27.0613,88.4702
Kannur Museum,Kannur,Kerala,History,1984,11.8745,75.3704
Kanyakumari Museum,Kanyakumari,Tamil Nadu,History,1986,8.0883,77.5385
Kapurthala Museum,Kapurthala,Punjab,History,1988,31.3793,75.3855
Karaikal Museum,Karaikal,Puducherry,History,1990,10.9251,79.8382
Karimnagar Museum,Karimnagar,Telangana,History,1989,18.4386,79.1288
Karur Museum,Karur,Tamil Nadu,History,1987,10.9479,78.0804
Katihar Museum,Katihar,Bihar,History,1985,25.5331,87.5744
Kendujhar Museum,Kendujhar,Odisha,Cultural,1991,21.6399,85.5753
Khandwa Museum,Khandwa,MP,History,1992,21.8333,76.3500
Khargone Museum,Khargone,MP,History,1993,21.8110,75.6105
Kochi Museum,Kochi,Kerala,History,1986,9.9312,76.2673
Kolhapur Museum,Kolhapur,Maharashtra,History,1990,16.7050,74.2410
Kollam Museum,Kollam,Kerala,History,1988,8.8932,76.6141
Koraput Museum,Koraput,Odisha,Cultural,1985,18.8276,82.7162
Kotdwara Museum,Kotdwara,Uttrakhand,History,1987,29.7854,78.6493
Kozhikode Museum,Kozhikode,Kerala,History,1989,11.2588,75.7804
Kurnool Museum,Kurnool,AP,History,1991,15.8281,78.0373
Lakhimpur Museum,Lakhimpur,Assam,History,1987,27.2360,94.1147
Lalit Kala Akademi Museum,New Delhi,Delhi,Art,1954,28.6139,77.2090
Ludhiana Museum,Ludhiana,Punjab,History,1986,30.9010,75.8573
Madurai Museum,Madurai,Tamil Nadu,History,1988,9.9312,78.1232
Mahasamund Museum,Mahasamund,Chhattisgarh,Cultural,1989,21.0990,82.1059
Malda Museum,Malda,West Bengal,History,1987,25.0160,88.1519
Mandi Museum,Mandi,Himachal Pradesh,Cultural,1986,31.7036,76.9161
Mandsaur Museum,Mandsaur,Madhya Pradesh,History,1988,24.0731,75.0461
Mathura Museum,Mathura,Uttar Pradesh,History,1985,27.4924,77.6737
Meerut Museum,Meerut,Uttar Pradesh,History,1990,28.9845,77.7064
Midnapore Museum,Midnapore,West Bengal,History,1988,22.4308,87.3132
Mirzapur Museum,Mirzapur,Uttar Pradesh,History,1986,25.1447,82.5670
Moradabad Museum,Moradabad,Uttar Pradesh,History,1989,28.8386,78.7730
Muzaffarpur Museum,Muzaffarpur,Bihar,History,1987,26.1204,85.3647
Mysore Palace Museum,Mysore,Karnataka,Art & Culture,1912,12.3051,76.6551
Nainital Museum,Nainital,Uttarakhand,Cultural,1985,29.3919,79.4542
Nanded Museum,Nanded,Maharashtra,History,1987,19.1527,77.3279
Nashik Museum,Nashik,Maharashtra,History,1988,19.9975,73.7898
Nellore Museum,Nellore,Andhra Pradesh,History,1986,14.4426,79.9865
New Delhi Railway Museum,New Delhi,Delhi,Transport,1977,28.6270,77.2195
Nilgiri Museum,Ooty,Tamil Nadu,Cultural,1984,11.4064,76.6932
Orai Museum,Orai,Uttar Pradesh,History,1989,25.9904,79.4510
Osmanabad Museum,Osmanabad,Maharashtra,History,1985,18.1810,76.0380
Palakkad Museum,Palakkad,Kerala,History,1987,10.7867,76.6548
Pali Museum,Pali,Rajasthan,History,1990,25.7797,73.3233
Panaji Museum,Panaji,Goa,Cultural,1988,15.4909,73.8278
Panchkula Museum,Panchkula,Haryana,History,1992,30.7046,76.8526
Patan Museum,Patan,Gujarat,History,1987,23.8500,72.1308
Pilibhit Museum,Pilibhit,Uttar Pradesh,History,1986,28.6339,79.8058
Pune Museum,Pune,Maharashtra,History,1989,18.5204,73.8567
Raigarh Museum,Raigarh,Chhattisgarh,Cultural,1985,21.9030,83.4074
Raipur Museum,Raipur,Chhattisgarh,History,1988,21.2514,81.6296
Rajahmundry Museum,Rajahmundry,Andhra Pradesh,History,1989,17.0057,81.7777
Rajkot Museum,Rajkot,Gujarat,History,1986,22.3039,70.8022
Rajnandgaon Museum,Rajnandgaon,Chhattisgarh,Cultural,1984,21.0986,81.0214
Rangpur Museum,Rangpur,West Bengal,History,1985,24.4587,88.6366
Raurkela Museum,Raurkela,Odisha,Industrial,1990,22.2494,84.8592
Rewa Museum,Rewa,Madhya Pradesh,History,1987,24.5367,81.2937
Rohtak Museum,Rohtak,Haryana,History,1989,28.8955,76.6066
Sagar Museum,Sagar,Madhya Pradesh,History,1986,23.8388,78.7378
Saharanpur Museum,Saharanpur,Uttar Pradesh,History,1985,29.9640,77.5510
Salem Museum,Salem,Tamil Nadu,History,1988,11.6643,78.1460
Sambalpur Museum,Sambalpur,Odisha,History,1989,21.4677,83.9707
Sangli Museum,Sangli,Maharashtra,History,1987,16.8619,74.5648
Satara Museum,Satara,Maharashtra,History,1986,17.6883,73.9954
Seoni Museum,Seoni,Madhya Pradesh,History,1985,22.0881,79.5270
Shimla State Museum,Shimla,Himachal Pradesh,Cultural,1974,31.1048,77.1734
Sikar Museum,Sikar,Rajasthan,History,1987,27.6094,75.1395
Silchar Museum,Silchar,Assam,History,1989,24.8333,92.7780
Siliguri Museum,Siliguri,West Bengal,History,1986,26.7206,88.3883
Singrauli Museum,Singrauli,Madhya Pradesh,History,1985,24.2024,82.6739
Solapur Museum,Solapur,Maharashtra,History,1987,17.6599,75.9064
Sonipat Museum,Sonipat,Haryana,History,1988,28.9935,77.0192
Srinagar Museum,Srinagar,Jammu & Kashmir,History,1986,34.0837,74.7973
Surat Museum,Surat,Gujarat,History,1985,21.1702,72.8311
Tezpur Museum,Tezpur,Assam,History,1989,26.6370,92.7921
Thanjavur Archaeological Museum,Thanjavur,Tamil Nadu,Archaeology,1975,10.7882,79.1373
Thiruvananthapuram Museum,Thiruvananthapuram,Kerala,History,1988,8.5241,76.9366
Thrissur Museum,Thrissur,Kerala,History,1986,10.5276,76.2144
Tiruchirappalli Museum,Tiruchirappalli,Tamil Nadu,History,1985,10.7905,78.7047
Tirunelveli Museum,Tirunelveli,Tamil Nadu,History,1987,8.7280,77.6857
Tumkur Museum,Tumkur,Karnataka,History,1989,13.3422,77.1017
Udupi Museum,Udupi,Karnataka,History,1988,13.3409,74.7421
Una Museum,Una,Himachal Pradesh,Cultural,1986,31.4735,76.2691
Vadodara Museum,Vadodara,Gujarat,History,1985,22.3072,73.1812
Varanasi Museum,Varanasi,Uttar Pradesh,History,1989,25.3176,82.9739
Vellore Museum,Vellore,Tamil Nadu,History,1987,12.9165,79.1325
Vidisha Museum,Vidisha,Madhya Pradesh,History,1986,23.5256,77.7973
Virudhunagar Museum,Virudhunagar,Tamil Nadu,History,1985,9.5880,77.9702
Warangal Museum,Warangal,Telangana,History,1988,17.9787,79.5941
Yadgir Museum,Yadgir,Karnataka,History,1986,16.7745,77.1354
Acharya Jagadish Chandra Bose Indian Botanical Museum,Kolkata,West Bengal,Natural History,1897,22.5726,88.3639
Aizawl Museum,Aizawl,Mizoram,Cultural,1991,23.7271,92.7176
Alappuzha Maritime Museum,Alappuzha,Kerala,Maritime,1987,9.4981,76.3388
Aligarh Museum,Aligarh,Uttar Pradesh,History,1985,27.8974,78.0880
Ambedkar Memorial,Indore,Madhya Pradesh,History,1990,22.7196,75.8577
Amravati Archaeological Museum,Amravati,Maharashtra,Archaeology,1984,20.9333,77.7500
Anantapur District Museum,Anantapur,Andhra Pradesh,History,1993,14.6810,77.6000
Archaeological Museum,Raipur,Chhattisgarh,Archaeology,1988,21.2514,81.6296
Assam State Museum,Guwahati,Assam,History,1940,26.1445,91.7362
Balangir Museum,Balangir,Odisha,Cultural,1985,20.7066,83.4944
Barmer Museum,Barmer,Rajasthan,History,1987,25.7570,71.3897
Begusarai Museum,Begusarai,Bihar,History,1989,25.4173,86.1270
Bengal Museum of Industrial Archaeology,Kolkata,West Bengal,Industrial,1995,22.5726,88.3639
Bhadrak Museum,Bhadrak,Odisha,History,1987,21.0640,86.5664
Bhagalpur Museum,Bhagalpur,Bihar,History,1986,25.2435,86.9846
Bhandara Museum,Bhandara,Maharashtra,History,1985,21.1651,79.6522
Bhilai Steel Plant Museum,Bhilai,Chhattisgarh,Industrial,1989,21.2167,81.4333
Bikaner Fort Museum,Bikaner,Rajasthan,History,1983,28.0159,73.3119
Bilaspur Tribal Museum,Bilaspur,Chhattisgarh,Cultural,1990,22.0799,82.1391
Bokaro Steel Museum,Bokaro,Jharkhand,Industrial,1997,23.6693,86.1511
Brahmapur Museum,Brahmapur,Odisha,History,1988,19.3140,84.7940
Chamba State Museum,Chamba,Himachal Pradesh,Cultural,1985,32.5518,76.1397
Chandrapur District Museum,Chandrapur,Maharashtra,History,1990,19.9531,79.2950
Chennai Museum,Chennai,Tamil Nadu,General,1851,13.0827,80.2707
Chhattisgarh State Museum,Raipur,Chhattisgarh,Cultural,1970,21.2514,81.6296
Coimbatore Museum,Coimbatore,Tamil Nadu,History,1987,11.0168,76.9558
Cuttack Museum,Cuttack,Odisha,History,1982,20.4625,85.8828
Darjeeling Himalayan Railway Museum,Darjeeling,West Bengal,Transport,1995,27.0360,88.2627
Davanagere Museum,Davanagere,Karnataka,History,1992,14.4644,75.9218
Dehradun Fossil Museum,Dehradun,Uttarakhand,Paleontology,1986,30.3165,78.0322
Dhanbad Museum,Dhanbad,Jharkhand,History,1987,23.7957,86.4304
Dhar Museum,Dhar,Madhya Pradesh,History,1994,22.5958,75.2830
Dindigul Museum,Dindigul,Tamil Nadu,History,1987,10.3626,77.9704
East Khasi Hills Museum,Shillong,Meghalaya,Cultural,1988,25.5788,91.8933
Ernakulam Museum,Ernakulam,Kerala,History,1990,9.9816,76.2999
Fatehpur Museum,Fatehpur,Uttar Pradesh,History,1990,25.9274,80.8138
Gandhinagar Science Museum,Gandhinagar,Gujarat,Science,1998,23.2156,72.6369
Gaya Museum,Gaya,Bihar,History,1987,24.7955,85.0000
Gir National Park Museum,Junagadh,Gujarat,Wildlife,1995,21.5265,70.4582
Gonda Museum,Gonda,Uttar Pradesh,History,1988,27.1338,81.9165
Gorakhpur Museum,Gorakhpur,Uttar Pradesh,History,1985,26.7614,83.3668
Guntur Museum,Guntur,Andhra Pradesh,History,1989,16.3067,80.4365
Haldwani Museum,Haldwani,Uttarakhand,Cultural,1991,29.2170,79.5124
Haridwar Museum,Haridwar,Uttarakhand,Religious,1990,29.9457,78.1642
Hazaribagh Museum,Hazaribagh,Jharkhand,History,1984,23.9960,85.3695
Hingoli Museum,Hingoli,Maharashtra,History,1992,19.7197,77.1631
Hospet Museum,Hospet,Karnataka,Archaeology,1990,15.2694,76.3750
Howrah Museum,Howrah,West Bengal,History,1987,22.5958,88.2636
Ichalkaranji Textile Museum,Ichalkaranji,Maharashtra,Textile,1995,16.6880,74.4650
Imphal Museum,Imphal,Manipur,Cultural,1982,24.8170,93.9368
Indore Museum,Indore,Madhya Pradesh,History,1988,22.7196,75.8577
Itanagar State Museum,Itanagar,Arunachal Pradesh,Cultural,1976,27.0844,93.6053
Jabalpur Museum,Jabalpur,Madhya Pradesh,History,1989,23.1815,79.9864
Jagdalpur Museum,Jagdalpur,Chhattisgarh,Cultural,1990,19.0748,82.0346
Jaipur City Museum,Jaipur,Rajasthan,History,1993,26.9124,75.7873
Jalandhar Museum,Jalandhar,Punjab,History,1985,31.3260,75.5762
Jammu Fort Museum,Jammu,Jammu & Kashmir,History,1988,32.7266,74.8570
Jamnagar Museum,Jamnagar,Gujarat,History,1986,22.4707,70.0577
Jamshedpur Museum,Jamshedpur,Jharkhand,Industrial,1989,22.8046,86.2029
Jhansi Fort Museum,Jhansi,Uttar Pradesh,History,1991,25.4489,78.5684
Jodhpur Museum,Jodhpur,Rajasthan,History,1983,26.2389,73.0243
Kalahandi Museum,Bhawanipatna,Odisha,Cultural,1987,20.2479,83.1698
Kalimpong Museum,Kalimpong,West Bengal,Cultural,1990,27.0613,88.4702
Kannur Museum,Kannur,Kerala,History,1984,11.8745,75.3704
Kanyakumari Museum,Kanyakumari,Tamil Nadu,History,1986,8.0883,77.5385
Kapurthala Museum,Kapurthala,Punjab,History,1988,31.3793,75.3855
Karaikal Museum,Karaikal,Puducherry,History,1990,10.9251,79.8382
Karimnagar Museum,Karimnagar,Telangana,History,1989,18.4386,79.1288
Karur Museum,Karur,Tamil Nadu,History,1987,10.9479,78.0804
Katihar Museum,Katihar,Bihar,History,1985,25.5331,87.5744
Kendujhar Museum,Kendujhar,Odisha,Cultural,1991,21.6399,85.5753
Khandwa Museum,Khandwa,Madhya Pradesh,History,1992,21.8333,76.3500
Khargone Museum,Khargone,Madhya Pradesh,History,1993,21.8110,75.6105
Kochi Museum,Kochi,Kerala,History,1986,9.9312,76.2673
Kolhapur Museum,Kolhapur,Maharashtra,History,1990,16.7050,74.2410
Kollam Museum,Kollam,Kerala,History,1988,8.8932,76.6141
Koraput Museum,Koraput,Odisha,Cultural,1985,18.8276,82.7162
Kotdwara Museum,Kotdwara,Uttarakhand,History,1987,29.7854,78.6493
Kozhikode Museum,Kozhikode,Kerala,History,1989,11.2588,75.7804
Kurnool Museum,Kurnool,Andhra Pradesh,History,1991,15.8281,78.0373
Lakhimpur Museum,Lakhimpur,Assam,History,1987,27.2360,94.1147
Lalit Kala Akademi Museum,New Delhi,Delhi,Art,1954,28.6139,77.2090
Ludhiana Museum,Ludhiana,Punjab,History,1986,30.9010,75.8573
Madurai Museum,Madurai,Tamil Nadu,History,1988,9.9312,78.1232
Mahasamund Museum,Mahasamund,Chhattisgarh,Cultural,1989,21.0990,82.1059
Malda Museum,Malda,West Bengal,History,1987,25.0160,88.1519
Mandi Museum,Mandi,Himachal Pradesh,Cultural,1986,31.7036,76.9161
Mandsaur Museum,Mandsaur,Madhya Pradesh,History,1988,24.0731,75.0461
Mathura Museum,Mathura,Uttar Pradesh,History,1985,27.4924,77.6737
Meerut Museum,Meerut,Uttar Pradesh,History,1990,28.9845,77.7064
Midnapore Museum,Midnapore,West Bengal,History,1988,22.4308,87.3132
Mirzapur Museum,Mirzapur,Uttar Pradesh,History,1986,25.1447,82.5670
Moradabad Museum,Moradabad,Uttar Pradesh,History,1989,28.8386,78.7730
Muzaffarpur Museum,Muzaffarpur,Bihar,History,1987,26.1204,85.3647
Mysore Palace Museum,Mysore,Karnataka,Art & Culture,1912,12.3051,76.6551
Nainital Museum,Nainital,Uttarakhand,Cultural,1985,29.3919,79.4542
Nanded Museum,Nanded,Maharashtra,History,1987,19.1527,77.3279
Nashik Museum,Nashik,Maharashtra,History,1988,19.9975,73.7898
Nellore Museum,Nellore,Andhra Pradesh,History,1986,14.4426,79.9865
New Delhi Railway Museum,New Delhi,Delhi,Transport,1977,28.6270,77.2195
Nilgiri Museum,Ooty,Tamil Nadu,Cultural,1984,11.4064,76.6932
Orai Museum,Orai,Uttar Pradesh,History,1989,25.9904,79.4510
Osmanabad Museum,Osmanabad,Maharashtra,History,1985,18.1810,76.0380
Palakkad Museum,Palakkad,Kerala,History,1987,10.7867,76.6548
Pali Museum,Pali,Rajasthan,History,1990,25.7797,73.3233
Panaji Museum,Panaji,Goa,Cultural,1988,15.4909,73.8278
Panchkula Museum,Panchkula,Haryana,History,1992,30.7046,76.8526
Patan Museum,Patan,Gujarat,History,1987,23.8500,72.1308
Pilibhit Museum,Pilibhit,Uttar Pradesh,History,1986,28.6339,79.8058
Pune Museum,Pune,Maharashtra,History,1989,18.5204,73.8567
Raigarh Museum,Raigarh,Chhattisgarh,Cultural,1985,21.9030,83.4074
Raipur Museum,Raipur,Chhattisgarh,History,1988,21.2514,81.6296
Rajahmundry Museum,Rajahmundry,Andhra Pradesh,History,1989,17.0057,81.7777
Rajkot Museum,Rajkot,Gujarat,History,1986,22.3039,70.8022
Rajnandgaon Museum,Rajnandgaon,Chhattisgarh,Cultural,1984,21.0986,81.0214
Rangpur Museum,Rangpur,West Bengal,History,1985,24.4587,88.6366
Raurkela Museum,Raurkela,Odisha,Industrial,1990,22.2494,84.8592
Rewa Museum,Rewa,Madhya Pradesh,History,1987,24.5367,81.2937
Rohtak Museum,Rohtak,Haryana,History,1989,28.8955,76.6066
Sagar Museum,Sagar,Madhya Pradesh,History,1986,23.8388,78.7378
Saharanpur Museum,Saharanpur,Uttar Pradesh,History,1985,29.9640,77.5510
Salem Museum,Salem,Tamil Nadu,History,1988,11.6643,78.1460
Sambalpur Museum,Sambalpur,Odisha,History,1989,21.4677,83.9707
Sangli Museum,Sangli,Maharashtra,History,1987,16.8619,74.5648
Satara Museum,Satara,Maharashtra,History,1986,17.6883,73.9954
Seoni Museum,Seoni,Madhya Pradesh,History,1985,22.0881,79.5270
Shimla State Museum,Shimla,Himachal Pradesh,Cultural,1974,31.1048,77.1734
Sikar Museum,Sikar,Rajasthan,History,1987,27.6094,75.1395
Silchar Museum,Silchar,Assam,History,1989,24.8333,92.7780
Siliguri Museum,Siliguri,West Bengal,History,1986,26.7206,88.3883
Singrauli Museum,Singrauli,Madhya Pradesh,History,1985,24.2024,82.6739
Solapur Museum,Solapur,Maharashtra,History,1987,17.6599,75.9064
Sonipat Museum,Sonipat,Haryana,History,1988,28.9935,77.0192
Srinagar Museum,Srinagar,Jammu & Kashmir,History,1986,34.0837,74.7973
Surat Museum,Surat,Gujarat,History,1985,21.1702,72.8311
Tezpur Museum,Tezpur,Assam,History,1989,26.6370,92.7921
Thanjavur Archaeological Museum,Thanjavur,Tamil Nadu,Archaeology,1975,10.7882,79.1373
Thiruvananthapuram Museum,Thiruvananthapuram,Kerala,History,1988,8.5241,76.9366
Thrissur Museum,Thrissur,Kerala,History,1986,10.5276,76.2144
Tiruchirappalli Museum,Tiruchirappalli,Tamil Nadu,History,1985,10.7905,78.7047
Tirunelveli Museum,Tirunelveli,Tamil Nadu,History,1987,8.7280,77.6857
Tumkur Museum,Tumkur,Karnataka,History,1989,13.3422,77.1017
Udupi Museum,Udupi,Karnataka,History,1988,13.3409,74.7421
Una Museum,Una,Himachal Pradesh,Cultural,1986,31.4697,76.2754
Vadodara Museum,Vadodara,Gujarat,History,1985,22.3072,73.1812
Vasai Fort Museum,Vasai,Maharashtra,History,1991,19.3876,72.8295
Vellore Fort Museum,Vellore,Tamil Nadu,History,1990,12.9165,79.1325
Veraval Museum,Veraval,Gujarat,Maritime,1987,20.9042,70.3674
Vidisha Museum,Vidisha,Madhya Pradesh,Archaeology,1986,23.5251,77.8081
Virudhunagar Museum,Virudhunagar,Tamil Nadu,History,1989,9.5850,77.9550
Vizianagaram Museum,Vizianagaram,Andhra Pradesh,History,1988,18.1169,83.4163
Wayanad Heritage Museum,Wayanad,Kerala,Cultural,1985,11.6941,76.1318
West Bengal Police Museum,Kolkata,West Bengal,Police,1989,22.5793,88.3694
Yadgir Museum,Yadgir,Karnataka,History,1987,16.7702,77.1379
Yamunanagar Museum,Yamunanagar,Haryana,History,1986,30.1290,77.2805
Zawar Mines Museum,Udaipur,Rajasthan,Industrial,1985,24.3149,73.5765
Zoological Museum,Kolkata,West Bengal,Natural History,1936,22.5635,88.3507
Adilabad Museum,Adilabad,Telangana,History,1985,19.6667,78.5333
Almora Museum,Almora,Uttarakhand,Cultural,1987,29.5970,79.6521
Amroha Museum,Amroha,Uttar Pradesh,History,1988,28.9031,78.4676
Anand Museum,Anand,Gujarat,History,1989,22.5560,72.9513
Archaeological Museum,Bhopal,Madhya Pradesh,Archaeology,1985,23.2599,77.4126
Archaeological Museum,Mathura,Uttar Pradesh,Archaeology,1987,27.4924,77.6737
Asansol Museum,Asansol,West Bengal,History,1990,23.6739,86.9524
Aurangabad Caves Museum,Aurangabad,Maharashtra,Archaeology,1986,19.8895,75.3206
Balasore Museum,Balasore,Odisha,History,1987,21.4946,86.9335
Bankura Museum,Bankura,West Bengal,History,1988,23.2324,87.0784
Baripada Museum,Baripada,Odisha,History,1989,21.9402,86.7195
Bastar Tribal Museum,Bastar,Chhattisgarh,Cultural,1986,19.1075,81.9535
Begum Rokeya Museum,Ranaghat,West Bengal,History,1987,23.1773,88.5645
Berhampur Museum,Berhampur,Odisha,History,1988,19.3149,84.7941
Bilaspur Museum,Bilaspur,Chhattisgarh,History,1989,22.0797,82.1391
Bokaro Museum,Bokaro,Jharkhand,Industrial,1985,23.6693,86.1511
Chakradharpur Museum,Chakradharpur,Jharkhand,History,1986,22.6722,85.6305
Chamba Museum,Chamba,Himachal Pradesh,Cultural,1987,32.5534,76.1258
Chandrapur Museum,Chandrapur,Maharashtra,History,1988,19.9615,79.2961
Coorg Museum,Coorg,Karnataka,Cultural,1989,12.3375,75.8069
Darbhanga Museum,Darbhanga,Bihar,History,1986,26.1533,85.8910
Darrang Museum,Mangaldoi,Assam,Cultural,1987,26.4456,92.0346
Dhanbad Museum,Dhanbad,Jharkhand,History,1988,23.7957,86.4304
Dharamshala Museum,Dharamshala,Himachal Pradesh,Cultural,1989,32.2190,76.3234
Dibrugarh Museum,Dibrugarh,Assam,History,1985,27.4728,94.9110
Dindigul Museum,Dindigul,Tamil Nadu,History,1986,10.3673,77.9803
East Singhbhum Museum,Jamshedpur,Jharkhand,Industrial,1987,22.8046,86.2029
Erode Museum,Erode,Tamil Nadu,History,1988,11.3410,77.7172
Fatehgarh Sahib Museum,Fatehgarh Sahib,Punjab,History,1989,30.6470,76.4016
Firozabad Museum,Firozabad,Uttar Pradesh,History,1986,27.1591,78.3958
Gadchiroli Museum,Gadchiroli,Maharashtra,Tribal,1987,20.1885,80.0000
Gandhinagar Museum,Gandhinagar,Gujarat,History,1988,23.2230,72.6500
Ganjam Museum,Berhampur,Odisha,History,1989,19.3149,84.7941
Garhwal Museum,Pauri Garhwal,Uttarakhand,Cultural,1985,30.1521,78.7720
Giridih Museum,Giridih,Jharkhand,History,1986,24.18,86.30
Gonda Museum,Gonda,Uttar Pradesh,History,1987,27.13,81.91
Gopalganj Museum,Gopalganj,Bihar,History,1988,26.47,84.46
Gorakhpur Museum,Gorakhpur,Uttar Pradesh,History,1989,26.76,83.37
Gulbarga Museum,Gulbarga,Karnataka,History,1986,17.33,76.83
Guntur Museum,Guntur,Andhra Pradesh,History,1987,16.30,80.44
Hamirpur Museum,Hamirpur,Himachal Pradesh,Cultural,1988,31.70,76.52
Harda Museum,Harda,Madhya Pradesh,History,1989,22.43,76.38
Hardoi Museum,Hardoi,Uttar Pradesh,History,1985,27.40,80.13
Hassan Museum,Hassan,Karnataka,History,1986,13.01,76.10
Hazaribagh Museum,Hazaribagh,Jharkhand,History,1987,23.99,85.36
Hoshiarpur Museum,Hoshiarpur,Punjab,History,1988,31.53,75.92
Hubli Museum,Hubli,Karnataka,History,1989,15.36,75.12
Hyderabad Archaeological Museum,Hyderabad,Telangana,Archaeology,1986,17.38,78.48
Imphal Museum,Imphal,Manipur,Cultural,1987,24.82,93.94
Indore Museum,Indore,Madhya Pradesh,History,1988,22.72,75.86
Jabalpur Museum,Jabalpur,Madhya Pradesh,History,1989,23.18,79.99
Jagdalpur Museum,Jagdalpur,Chhattisgarh,Cultural,1986,19.07,82.03
Jaipur Museum,Jaipur,Rajasthan,History,1987,26.92,75.79
Jalandhar Museum,Jalandhar,Punjab,History,1988,31.33,75.58
Jamnagar Museum,Jamnagar,Gujarat,History,1989,22.47,70.07
Jashpur Museum,Jashpur,Chhattisgarh,History,1986,22.80,84.34
Jatani Museum,Jatani,Odisha,History,1987,20.19,85.74
Jehanabad Museum,Jehanabad,Bihar,History,1988,24.99,84.98
Jhabua Museum,Jhabua,Madhya Pradesh,History,1989,22.77,74.59
Jhansi Museum,Jhansi,Uttar Pradesh,History,1986,25.45,78.57
Jhargram Museum,Jhargram,West Bengal,Cultural,1987,22.45,86.99
Jodhpur Museum,Jodhpur,Rajasthan,History,1988,26.24,73.02
Kaimur Museum,Kaimur,Bihar,History,1989,25.16,83.59
Kalimpong Museum,Kalimpong,West Bengal,Cultural,1986,27.07,88.47
Kalyan Museum,Kalyan,Maharashtra,History,1987,19.24,73.14
Kamrup Museum,Guwahati,Assam,History,1988,26.15,91.74
Kancheepuram Museum,Kancheepuram,Tamil Nadu,History,1989,12.83,79.70
Kannur Museum,Kannur,Kerala,History,1986,11.87,75.37
Kapurthala Museum,Kapurthala,Punjab,History,1987,31.38,75.38
Karimnagar Museum,Karimnagar,Telangana,History,1988,18.44,79.13
Karur Museum,Karur,Tamil Nadu,History,1989,10.95,78.08
Kasaragod Museum,Kasaragod,Kerala,Cultural,1986,12.50,74.99
Katihar Museum,Katihar,Bihar,History,1987,25.53,87.57
Kendrapara Museum,Kendrapara,Odisha,History,1988,20.50,86.57
Khandwa Museum,Khandwa,Madhya Pradesh,History,1989,21.83,76.35
Kheri Museum,Kheri,Uttar Pradesh,History,1986,27.80,80.28
Khordha Museum,Khordha,Odisha,History,1987,20.13,85.60
Kishanganj Museum,Kishanganj,Bihar,History,1988,26.10,87.94
Kochi Museum,Kochi,Kerala,History,1989,9.93,76.27
Kohima Museum,Kohima,Nagaland,Cultural,1986,25.67,94.12
Kolhapur Museum,Kolhapur,Maharashtra,History,1987,16.70,74.24
Kollam Museum,Kollam,Kerala,History,1988,8.88,76.62
Koraput Museum,Koraput,Odisha,Cultural,1989,18.82,82.72
Kota Museum,Kota,Rajasthan,History,1986,25.21,75.87
Kottayam Museum,Kottayam,Kerala,History,1987,9.59,76.52
Kozhikode Museum,Kozhikode,Kerala,History,1988,11.25,75.77
Krishna District Museum,Vijayawada,Andhra Pradesh,History,1989,16.51,80.62
Kullu Museum,Kullu,Himachal Pradesh,Cultural,1986,31.95,77.10
Kurnool Museum,Kurnool,Andhra Pradesh,History,1987,15.82,78.03
Lakhimpur Museum,Lakhimpur,Assam,History,1988,27.22,94.10
Lalitpur Museum,Lalitpur,Uttar Pradesh,History,1989,24.69,78.40
Latur Museum,Latur,Maharashtra,History,1986,18.40,76.57
Lohardaga Museum,Lohardaga,Jharkhand,History,1987,23.43,84.67
Ludhiana Museum,Ludhiana,Punjab,History,1988,30.91,75.85
Madurai Museum,Madurai,Tamil Nadu,History,1989,9.92,78.12
Mahbubnagar Museum,Mahbubnagar,Telangana,History,1986,16.73,77.99
Mandsaur Museum,Mandsaur,Madhya Pradesh,History,1987,24.07,75.04
Mangaluru Museum,Mangaluru,Karnataka,History,1988,12.91,74.85
Manipal Museum,Manipal,Karnataka,History,1989,13.34,74.79
Mathura Museum,Mathura,Uttar Pradesh,History,1986,27.49,77.67
Meerut Museum,Meerut,Uttar Pradesh,History,1987,28.98,77.71
Midnapore Museum,Midnapore,West Bengal,History,1988,22.43,87.31
Mirzapur Museum,Mirzapur,Uttar Pradesh,History,1989,25.15,82.57
Moradabad Museum,Moradabad,Uttar Pradesh,History,1986,28.84,78.77
Mumbai Police Museum,Mumbai,Maharashtra,Police,1992,18.94,72.83
Muzaffarpur Museum,Muzaffarpur,Bihar,History,1987,26.12,85.36
Mysore Palace Museum,Mysore,Karnataka,Art & Culture,1912,12.30,76.65
Nainital Museum,Nainital,Uttarakhand,Cultural,1985,29.39,79.45
Nanded Museum,Nanded,Maharashtra,History,1987,19.15,77.33
Nashik Museum,Nashik,Maharashtra,History,1988,19.99,73.79
Nellore Museum,Nellore,Andhra Pradesh,History,1986,14.44,79.99
New Delhi Railway Museum,New Delhi,Delhi,Transport,1977,28.63,77.22
Nilgiri Museum,Ooty,Tamil Nadu,Cultural,1984,11.41,76.69
Orai Museum,Orai,Uttar Pradesh,History,1989,25.99,79.45
Osmanabad Museum,Osmanabad,Maharashtra,History,1985,18.18,76.03
Palakkad Museum,Palakkad,Kerala,History,1987,10.79,76.65
Pali Museum,Pali,Rajasthan,History,1990,25.78,73.32
Panaji Museum,Panaji,Goa,Cultural,1988,15.49,73.83
Panchkula Museum,Panchkula,Haryana,History,1992,30.70,76.85
Patan Museum,Patan,Gujarat,History,1987,23.85,72.13
Pilibhit Museum,Pilibhit,Uttar Pradesh,History,1986,28.63,79.81
Pune Museum,Pune,Maharashtra,History,1989,18.52,73.86
Raigarh Museum,Raigarh,Chhattisgarh,Cultural,1985,21.90,83.41
Raipur Museum,Raipur,Chhattisgarh,History,1988,21.25,81.63
Rajahmundry Museum,Rajahmundry,Andhra Pradesh,History,1989,17.01,81.78
Rajkot Museum,Rajkot,Gujarat,History,1986,22.30,70.80
Rajnandgaon Museum,Rajnandgaon,Chhattisgarh,Cultural,1984,21.10,81.02
Rangpur Museum,Rangpur,West Bengal,History,1985,24.46,88.64
Raurkela Museum,Raurkela,Odisha,Industrial,1990,22.25,84.86
Rewa Museum,Rewa,Madhya Pradesh,History,1987,24.54,81.29
Rohtak Museum,Rohtak,Haryana,History,1989,28.90,76.61
Sagar Museum,Sagar,Madhya Pradesh,History,1986,23.84,78.74
Saharanpur Museum,Saharanpur,Uttar Pradesh,History,1985,29.96,77.55
Salem Museum,Salem,Tamil Nadu,History,1988,11.66,78.16
Sambalpur Museum,Sambalpur,Odisha,History,1989,21.47,83.97
Sangli Museum,Sangli,Maharashtra,History,1987,16.87,74.57
Satara Museum,Satara,Maharashtra,History,1986,17.68,73.99
Seoni Museum,Seoni,Madhya Pradesh,History,1985,22.08,79.53
Shimla State Museum,Shimla,Himachal Pradesh,Cultural,1974,31.10,77.17
Sikar Museum,Sikar,Rajasthan,History,1987,27.61,75.14
Silchar Museum,Silchar,Assam,History,1989,24.83,92.79
Siliguri Museum,Siliguri,West Bengal,History,1986,26.71,88.43
Singrauli Museum,Singrauli,Madhya Pradesh,History,1985,24.18,82.60
Solapur Museum,Solapur,Maharashtra,History,1987,17.68,75.90
Sonipat Museum,Sonipat,Haryana,History,1988,28.99,77.02
Srinagar Museum,Srinagar,Jammu & Kashmir,History,1986,34.08,74.79
Surat Museum,Surat,Gujarat,History,1985,21.19,72.83
Tezpur Museum,Tezpur,Assam,History,1989,26.63,92.79
Thanjavur Archaeological Museum,Thanjavur,Tamil Nadu,Archaeology,1975,10.79,79.14
Thiruvananthapuram Museum,Thiruvananthapuram,Kerala,History,1988,8.52,76.93
Thrissur Museum,Thrissur,Kerala,History,1986,10.52,76.21
Tiruchirappalli Museum,Tiruchirappalli,Tamil Nadu,History,1985,10.82,78.69
Tirunelveli Museum,Tirunelveli,Tamil Nadu,History,1987,8.71,77.73
Tumkur Museum,Tumkur,Karnataka,History,1989,13.33,77.10
Udupi Museum,Udupi,Karnataka,History,1988,13.34,74.74
Una Museum,Una,Himachal Pradesh,Cultural,1986,31.47,76.27
Vadodara Museum,Vadodara,Gujarat,History,1985,22.31,73.19
Varanasi Museum,Varanasi,Uttar Pradesh,History,1987,25.32,82.97
Vellore Museum,Vellore,Tamil Nadu,History,1988,12.92,79.13
Vidisha Museum,Vidisha,Madhya Pradesh,History,1989,23.52,77.80
Vizianagaram Museum,Vizianagaram,Andhra Pradesh,History,1986,18.11,83.41
Warangal Museum,Warangal,Telangana,History,1987,18.00,79.58
Yamunanagar Museum,Yamunanagar,Haryana,History,1988,30.13,77.27
Aizawl Museum,Aizawl,Mizoram,Cultural,1990,23.73,92.72
Alappuzha Maritime Museum,Alappuzha,Kerala,Maritime,1991,9.50,76.33
Alwar City Museum,Alwar,Rajasthan,History,1992,27.56,76.63
Amritsar Central Museum,Amritsar,Punjab,History,1990,31.63,74.87
Anantapur Museum,Anantapur,Andhra Pradesh,History,1993,14.68,77.60
Aranmula Museum,Aranmula,Kerala,Cultural,1991,9.29,76.65
Archaeological Museum,Patna,Bihar,Archaeology,1994,25.61,85.14
Archaeological Museum,Kolkata,West Bengal,Archaeology,1992,22.57,88.36
Baddi Museum,Baddi,Himachal Pradesh,History,1991,30.99,76.79
Bahraich Museum,Bahraich,Uttar Pradesh,History,1990,27.58,81.65
Balangir Museum,Balangir,Odisha,History,1993,20.70,83.49
Balrampur Museum,Balrampur,Uttar Pradesh,History,1992,27.50,82.20
Banka Museum,Banka,Bihar,History,1991,24.78,86.93
Baramulla Museum,Baramulla,Jammu & Kashmir,History,1990,34.20,74.36
Baran Museum,Baran,Rajasthan,History,1994,25.10,76.51
Bargarh Museum,Bargarh,Odisha,History,1993,21.35,83.62
Barmer Museum,Barmer,Rajasthan,History,1991,25.75,71.38
Baripada Tribal Museum,Baripada,Odisha,Cultural,1990,21.93,86.72
Basirhat Museum,Basirhat,West Bengal,History,1992,22.66,88.88
Bathinda Museum,Bathinda,Punjab,History,1991,30.21,74.95
Begusarai Museum,Begusarai,Bihar,History,1993,25.42,86.13
Belgaum Museum,Belgaum,Karnataka,History,1994,15.85,74.50
Bhadohi Museum,Bhadohi,Uttar Pradesh,History,1991,25.37,82.57
Bhilai Museum,Bhilai,Chhattisgarh,Industrial,1992,21.21,81.42
Bhimavaram Museum,Bhimavaram,Andhra Pradesh,History,1990,16.54,81.52
Bhiwani Museum,Bhiwani,Haryana,History,1993,28.80,76.13
Bikaner Museum,Bikaner,Rajasthan,History,1994,28.02,73.31
Birbhum Museum,Birbhum,West Bengal,Cultural,1991,23.92,87.53
Bishnupur Museum,Bishnupur,West Bengal,Art & Culture,1992,23.02,87.32
Bokajan Museum,Bokajan,Assam,History,1990,26.73,93.24
Bolangir Museum,Bolangir,Odisha,History,1993,20.71,83.49
Chandrapur Tribal Museum,Chandrapur,Maharashtra,Tribal,1994,19.96,79.30
Charkhi Dadri Museum,Charkhi Dadri,Haryana,History,1991,28.60,76.15
Chennai Rail Museum,Chennai,Tamil Nadu,Transport,2002,13.08,80.23
Chitradurga Museum,Chitradurga,Karnataka,History,1992,14.23,76.40
Coimbatore Textile Museum,Coimbatore,Tamil Nadu,Industrial,1993,11.01,76.96
Cooch Behar Museum,Cooch Behar,West Bengal,History,1994,26.33,89.45
Daman Museum,Daman,Dadra and Nagar Haveli,History,1985,20.42,72.83
Darjeeling Himalayan Railway Museum,Darjeeling,West Bengal,Transport,1991,27.02,88.26
Deoghar Museum,Deoghar,Jharkhand,History,1993,24.48,86.71
Dewas Museum,Dewas,Madhya Pradesh,History,1994,22.97,76.06
Dhubri Museum,Dhubri,Assam,History,1991,26.02,90.58
Dindori Museum,Dindori,Madhya Pradesh,History,1992,22.95,81.10
Durg Museum,Durg,Chhattisgarh,History,1990,21.20,81.30
East Delhi Museum,New Delhi,Delhi,History,1993,28.67,77.29
Etawah Museum,Etawah,Uttar Pradesh,History,1994,26.78,79.01
Farrukhabad Museum,Farrukhabad,Uttar Pradesh,History,1991,27.39,79.58
Fatehpur Museum,Fatehpur,Uttar Pradesh,History,1992,25.92,80.81
Fazilka Museum,Fazilka,Punjab,History,1990,30.40,74.03
Gadag Museum,Gadag,Karnataka,History,1993,15.43,75.63
Gandhinagar Science Museum,Gandhinagar,Gujarat,Science,1994,23.22,72.68
Ganjam Tribal Museum,Berhampur,Odisha,Cultural,1991,19.31,84.79
Garhwa Museum,Garhwa,Jharkhand,History,1992,24.18,83.81
Gaya Museum,Gaya,Bihar,History,1990,24.79,85.01
Ghazipur Museum,Ghazipur,Uttar Pradesh,History,1993,25.58,83.58
Gir National Park Museum,Junagadh,Gujarat,Wildlife,1994,21.53,70.46
Gondia Museum,Gondia,Maharashtra,History,1991,21.46,80.19
Gopalpur Museum,Gopalpur,Odisha,History,1992,19.28,84.88
Gurdaspur Museum,Gurdaspur,Punjab,History,1990,32.04,75.40
Hamirpur Tribal Museum,Hamirpur,Himachal Pradesh,Cultural,1993,31.70,76.52
Hanumangarh Museum,Hanumangarh,Rajasthan,History,1994,29.58,74.33
Hardoi Archaeological Museum,Hardoi,Uttar Pradesh,Archaeology,1991,27.39,80.14
Hazaribagh Tribal Museum,Hazaribagh,Jharkhand,Cultural,1992,23.99,85.30
Hindupur Museum,Hindupur,Andhra Pradesh,History,1990,14.16,77.49
Hooghly Museum,Hooghly,West Bengal,History,1993,22.90,88.40
Hospet Museum,Hospet,Karnataka,History,1994,15.27,76.40
Hoshangabad Museum,Hoshangabad,Madhya Pradesh,History,1991,22.75,77.73
Howrah Museum,Howrah,West Bengal,History,1992,22.59,88.31
Idukki Museum,Idukki,Kerala,History,1990,9.87,76.92
Imphal Tribal Museum,Imphal,Manipur,Cultural,1993,24.82,93.94
Name,City,State,Type,Established,Latitude,Longitude
Indore Tribal Museum,Indore,Madhya Pradesh,Cultural,1994,22.7196,75.8577
Jabalpur Tribal Museum,Jabalpur,Madhya Pradesh,Cultural,1991,23.2347,77.3851
Jagdalpur Tribal Museum,Jagdalpur,Chhattisgarh,Cultural,1992,20.2700,81.6300
Jaisalmer Museum,Jaisalmer,Rajasthan,History,1990,26.9397,71.02198
Jalandhar Rail Museum,Jalandhar,Punjab,Transport,1993,31.3256,75.5794
Jalpaiguri Museum,Jalpaiguri,West Bengal,History,1994,26.5405,88.7194
Jamnagar Maritime Museum,Jamnagar,Gujarat,Maritime,1991,22.4707,70.0577
Jamshedpur Steel Museum,Jamshedpur,Jharkhand,Industrial,1992,22.8046,86.2029
Janjgir Museum,Janjgir,Chhattisgarh,History,1990,21.9047,82.2217
Jashpur Tribal Museum,Jashpur,Chhattisgarh,Cultural,1993,22.9600,83.9000
Jharsuguda Museum,Jharsuguda,Odisha,History,1994,21.8588,84.0394
Jhunjhunu Museum,Jhunjhunu,Rajasthan,History,1991,28.1239,75.3934
Jorhat Museum,Jorhat,Assam,History,1992,26.7498,94.2165
Junagadh Museum,Junagadh,Gujarat,History,1990,21.5222,70.4579
Kalahandi Museum,Kalahandi,Odisha,History,1993,19.9126,83.0806
Kalyani Museum,Kalyani,West Bengal,History,1994,22.9750,88.4340
Kamaraj Memorial Museum,Chennai,Tamil Nadu,History,1991,13.0645,80.3224
Kamrup Tribal Museum,Guwahati,Assam,Cultural,1992,26.1445,91.7362
Kancheepuram Art Museum,Kancheepuram,Tamil Nadu,Art,1990,12.8342,79.7036
Kanker Museum,Kanker,Chhattisgarh,History,1993,20.2702,81.4968
Kannauj Museum,Kannauj,Uttar Pradesh,History,1994,27.0640,79.9187
Kapurthala Art Museum,Kapurthala,Punjab,Art,1991,31.3791,75.3791
Karimnagar Tribal Museum,Karimnagar,Telangana,Cultural,1992,18.4386,79.1288
Karwar Museum,Karwar,Karnataka,History,1990,14.8096,74.1083
Kashmir Museum,Srinagar,Jammu & Kashmir,History,1993,34.0837,74.7973
Katihar Tribal Museum,Katihar,Bihar,Cultural,1994,25.5459,87.5730
Khagaria Museum,Khagaria,Bihar,History,1991,25.5351,86.4842
Khandwa Tribal Museum,Khandwa,Madhya Pradesh,Cultural,1992,21.8243,76.3600
Khargone Museum,Khargone,Madhya Pradesh,History,1990,21.8110,75.6110
Kishangarh Museum,Kishangarh,Rajasthan,History,1993,26.5752,74.6292
Kodagu Museum,Coorg,Karnataka,History,1994,12.3375,75.8069
Kolar Museum,Kolar,Karnataka,History,1991,13.1368,78.1296
Kollam Maritime Museum,Kollam,Kerala,Maritime,1992,8.8932,76.6141
Kota Art Museum,Kota,Rajasthan,Art,1990,25.2138,75.8648
Kottayam Tribal Museum,Kottayam,Kerala,Cultural,1993,9.5916,76.5224
Kozhikode Art Museum,Kozhikode,Kerala,Art,1994,11.2588,75.7804
Krishna Museum,Vijayawada,Andhra Pradesh,History,1991,16.5062,80.6480
Kulgam Museum,Kulgam,Jammu & Kashmir,History,1992,33.6407,75.0155
Kurnool Tribal Museum,Kurnool,Andhra Pradesh,Cultural,1990,15.8281,78.0373
Name,City,State,Type,Established,Latitude,Longitude
Lalitpur Tribal Museum,Lalitpur,Uttar Pradesh,Cultural,1993,24.68786,78.41202
Latur Tribal Museum,Latur,Maharashtra,Cultural,1994,18.40881,76.56964
Lohardaga Tribal Museum,Lohardaga,Jharkhand,Cultural,1991,23.43517,84.67263
Lucknow Rail Museum,Lucknow,Uttar Pradesh,Transport,2004,26.84670,80.94616
Ludhiana Art Museum,Ludhiana,Punjab,Art,1992,30.90091,75.85727
Madikeri Museum,Coorg,Karnataka,History,1990,12.42101,75.73824
Madurai Tribal Museum,Madurai,Tamil Nadu,Cultural,1993,9.92520,78.11977
Mahasamund Museum,Mahasamund,Chhattisgarh,History,1994,21.10905,82.08998
Malda Museum,Malda,West Bengal,History,1991,25.01259,88.14189
Mandi Museum,Mandi,Himachal Pradesh,History,1992,31.70923,76.96618
Mangalore Art Museum,Mangalore,Karnataka,Art,1990,12.91414,74.85601
Mandsaur Tribal Museum,Mandsaur,Madhya Pradesh,Cultural,1993,24.07334,75.06815
Mandya Museum,Mandya,Karnataka,History,1994,12.52308,76.89635
Manipur Tribal Museum,Imphal,Manipur,Cultural,1991,24.81705,93.93682
Mapusa Museum,Mapusa,Goa,History,1992,15.57127,73.81829
Margao Museum,Margao,Goa,History,1990,15.28261,73.98282
Mayurbhanj Museum,Mayurbhanj,Odisha,History,1993,21.93219,86.51454
Meerut Art Museum,Meerut,Uttar Pradesh,Art,1994,28.98446,77.70641
Midnapore Tribal Museum,Midnapore,West Bengal,Cultural,1991,22.43230,87.32281
Mirzapur Tribal Museum,Mirzapur,Uttar Pradesh,Cultural,1992,25.14403,82.56452
Moradabad Art Museum,Moradabad,Uttar Pradesh,Art,1990,28.84146,78.75622
Munger Museum,Munger,Bihar,History,1993,25.37644,86.47092
Murshidabad Museum,Murshidabad,West Bengal,History,1994,24.18585,88.27362
Muzaffarnagar Museum,Muzaffarnagar,Uttar Pradesh,History,1991,29.47232,77.70446
Mysore Tribal Museum,Mysore,Karnataka,Cultural,1992,12.29581,76.63938
Nagaon Museum,Nagaon,Assam,History,1990,26.34702,92.68390
Nagpur Tribal Museum,Nagpur,Maharashtra,Cultural,1993,21.14580,79.08816
Nanded Tribal Museum,Nanded,Maharashtra,Cultural,1994,19.13833,77.32103
Nashik Art Museum,Nashik,Maharashtra,Art,1991,19.99745,73.78980
Nellore Tribal Museum,Nellore,Andhra Pradesh,Cultural,1992,14.44261,79.98648
New Delhi Postal Museum,New Delhi,Delhi,Postal,1989,28.61394,77.20902
Nilgiris Tribal Museum,Udhagamandalam,Tamil Nadu,Cultural,1993,11.40639,76.69500
Nizamabad Museum,Nizamabad,Telangana,History,1994,18.67265,78.09638
Ongole Museum,Ongole,Andhra Pradesh,History,1991,15.50574,80.04971
Osmanabad Tribal Museum,Osmanabad,Maharashtra,Cultural,1992,18.18338,76.04154
Palanpur Museum,Palanpur,Gujarat,History,1990,24.17107,72.42487
Palakkad Tribal Museum,Palakkad,Kerala,Cultural,1993,10.78671,76.65477
Pali Art Museum,Pali,Rajasthan,Art,1994,25.77141,73.32309
Panipat Museum,Panipat,Haryana,History,1991,29.39095,76.96350
Panchgani Museum,Panchgani,Maharashtra,History,1992,17.92391,73.79772
Pudukkottai Museum,Pudukkottai,Tamil Nadu,History,1990,10.38019,78.82019
Purulia Museum,Purulia,West Bengal,History,1993,23.33910,86.36061
Raigarh Tribal Museum,Raigarh,Chhattisgarh,Cultural,1994,21.8974,83.39496  
Raipur Tribal Museum,Raipur,Chhattisgarh,Cultural,1991,21.2514,81.6296 (city coordinates)  
Rajgarh Museum,Rajgarh,Madhya Pradesh,History,1992,24.1835,76.3856 (city coordinates)  
Rajkot Art Museum,Rajkot,Gujarat,Art,1990,22.3039,70.8022 (city coordinates)  
Ramanagara Museum,Ramanagara,Karnataka,History,1993,12.7194,77.2841 (city coordinates)  
Ranchi Art Museum,Ranchi,Jharkhand,Art,1994,23.3441,85.3096 (city coordinates)  
Ratlam Museum,Ratlam,Madhya Pradesh,History,1991,23.3308,75.0413 (city coordinates)  
Rewari Museum,Rewari,Haryana,History,1992,28.1975,76.6167 (city coordinates)  
Rohtak Tribal Museum,Rohtak,Haryana,Cultural,1990,28.8955,76.6066 (city coordinates)  
Sagar Tribal Museum,Sagar,Madhya Pradesh,Cultural,1993,23.8388,78.7378 (city coordinates)  
Saharanpur Art Museum,Saharanpur,Uttar Pradesh,Art,1994,29.9640,77.5456 (city coordinates)  
Sambalpur Tribal Museum,Sambalpur,Odisha,Cultural,1991,21.4541,83.9812 (city coordinates)  
Sangli Tribal Museum,Sangli,Maharashtra,Cultural,1992,16.8689,74.5646 (city coordinates)  
Satara Tribal Museum,Satara,Maharashtra,Cultural,1990,17.6896,73.9937 (city coordinates)  
Shillong Museum,Shillong,Meghalaya,History,1994,25.5822,91.8944  
Shimla Tribal Museum,Shimla,Himachal Pradesh,Cultural,1991,31.1048,77.1734 (city coordinates)  
Sikar Art Museum,Sikar,Rajasthan,Art,1992,27.6115,75.1399 (city coordinates)  
Silchar Tribal Museum,Silchar,Assam,Cultural,1990,24.8333,92.8000 (city coordinates)  
Siliguri Art Museum,Siliguri,West Bengal,Art,1993,26.7167,88.4167 (city coordinates)  
Solan Museum,Solan,Himachal Pradesh,History,1994,30.9082,77.0969 (city coordinates)  
Solapur Tribal Museum,Solapur,Maharashtra,Cultural,1991,17.6599,75.9064 (city coordinates)  
Sonipat Art Museum,Sonipat,Haryana,Art,1992,28.9930,77.0161 (city coordinates)  
Srinagar Tribal Museum,Srinagar,Jammu & Kashmir,Cultural,1990,34.0837,74.7973 (city coordinates)  
Sujangarh Museum,Sujangarh,Rajasthan,History,1993,27.4910,74.4832 (city coordinates)  
Surat Art Museum,Surat,Gujarat,Art,1994,21.1702,72.8311 (city coordinates)  
Tehri Museum,Tehri Garhwal,Uttarakhand,History,1991,30.2935,78.1158 (city coordinates)  
Thane Museum,Thane,Maharashtra,History,1992,19.2183,72.9781
Thrissur Tribal Museum,Thrissur,Kerala,Cultural,1990,10.5276,76.2144
Tiruvannamalai Museum,Tiruvannamalai,Tamil Nadu,History,1993,12.2253,79.0747
Tirupati Museum,Tirupati,Andhra Pradesh,History,1994,13.6288,79.4192
Tumkur Tribal Museum,Tumkur,Karnataka,Cultural,1991,13.3409,77.1010
Udaipur Tribal Museum,Udaipur,Rajasthan,Cultural,1992,24.5854,73.7125
Udupi Tribal Museum,Udupi,Karnataka,Cultural,1990,13.3409,74.7421
Una Tribal Museum,Una,Himachal Pradesh,Cultural,1993,31.4694,76.2752
Vadodara Art Museum,Vadodara,Gujarat,Art,1994,22.3072,73.1812
Valsad Museum,Valsad,Gujarat,History,1991,20.5992,72.9341
Varanasi Tribal Museum,Varanasi,Uttar Pradesh,Cultural,1992,25.3176,82.9739
Vellore Tribal Museum,Vellore,Tamil Nadu,Cultural,1990,12.9165,79.1325
Vidisha Tribal Museum,Vidisha,Madhya Pradesh,Cultural,1993,23.5245,77.8131
Vizianagaram Tribal Museum,Vizianagaram,Andhra Pradesh,Cultural,1994,18.1067,83.3956
Warangal Tribal Museum,Warangal,Telangana,Cultural,1991,17.9784,79.5941
Yamunanagar Tribal Museum,Yamunanagar,Haryana,Cultural,1992,30.1290,77.2800






